{"type":"FeatureCollection","features":[{"type":"Feature","geometry":{"type":"MultiPolygon","coordinates":[[[[3.214,39.958],[3.08,39.902],[3.084,39.875],[3.106,39.858],[3.19,39.892],[3.204,39.889],[3.188,39.882],[3.197,39.862],[3.179,39.841],[3.121,39.832],[3.135,39.783],[3.253,39.729],[3.329,39.76],[3.348,39.789],[3.479,39.716],[3.436,39.634],[3.397,39.628],[3.385,39.593],[3.404,39.579],[3.332,39.54],[3.34,39.535],[3.292,39.494],[3.232,39.362],[3.069,39.267],[2.958,39.362],[2.914,39.352],[2.882,39.366],[2.787,39.363],[2.742,39.406],[2.747,39.441],[2.722,39.476],[2.748,39.511],[2.67,39.562],[2.541,39.525],[2.522,39.457],[2.476,39.466],[2.457,39.534],[2.419,39.523],[2.414,39.539],[2.387,39.521],[2.346,39.565],[2.356,39.606],[2.462,39.652],[2.528,39.702],[2.586,39.716],[2.778,39.856],[2.845,39.862],[2.95,39.92],[3.214,39.958]]],[[[4.094,40.088],[4.093,40.06],[4.103,40.044],[4.134,40.063],[4.127,40.026],[4.141,40.036],[4.137,40.067],[4.155,40.068],[4.205,39.993],[4.208,40.013],[4.22,39.997],[4.27,39.997],[4.255,39.993],[4.266,39.982],[4.255,39.964],[4.328,39.877],[4.256,39.897],[4.307,39.865],[4.288,39.815],[3.96,39.938],[3.9,39.922],[3.821,39.926],[3.836,40.002],[3.799,39.998],[3.791,40.016],[3.822,40.051],[4.054,40.052],[4.089,40.069],[4.081,40.089],[4.094,40.088]]],[[[1.533,39.118],[1.557,39.093],[1.604,39.091],[1.598,39.082],[1.61,39.079],[1.588,39.063],[1.622,39.028],[1.527,38.982],[1.529,38.945],[1.421,38.904],[1.403,38.875],[1.406,38.832],[1.384,38.842],[1.371,38.83],[1.343,38.871],[1.224,38.871],[1.213,38.902],[1.236,38.939],[1.215,38.958],[1.229,38.975],[1.307,38.972],[1.284,38.994],[1.299,39.01],[1.294,39.032],[1.533,39.118]]],[[[1.436,38.762],[1.496,38.688],[1.53,38.673],[1.569,38.692],[1.585,38.663],[1.524,38.653],[1.447,38.685],[1.386,38.641],[1.38,38.719],[1.397,38.735],[1.419,38.723],[1.433,38.772],[1.436,38.762]]]]},"properties":{"prov":"07","name":"Illes Balears"}},{"type":"Feature","geometry":{"type":"MultiPolygon","coordinates":[[[[-5.841,43.661],[-5.756,43.583],[-5.712,43.569],[-5.676,43.571],[-5.701,43.566],[-5.679,43.541],[-5.618,43.559],[-5.494,43.544],[-5.413,43.555],[-5.388,43.53],[-5.295,43.535],[-5.216,43.475],[-4.926,43.462],[-4.699,43.405],[-4.681,43.409],[-4.567,43.392],[-4.519,43.396],[-4.522,43.281],[-4.548,43.269],[-4.555,43.288],[-4.607,43.301],[-4.632,43.268],[-4.731,43.257],[-4.72,43.236],[-4.746,43.184],[-4.841,43.181],[-4.871,43.228],[-4.911,43.237],[-4.964,43.212],[-4.997,43.173],[-5.076,43.182],[-5.102,43.102],[-5.369,43.095],[-5.39,43.049],[-5.479,43.055],[-5.494,43.021],[-5.57,43.023],[-5.693,43.056],[-5.728,43.043],[-5.764,42.97],[-5.804,42.963],[-5.915,42.993],[-5.957,43.019],[-5.975,43.065],[-6.02,43.055],[-6.082,43.076],[-6.096,43.031],[-6.137,43.021],[-6.178,43.048],[-6.216,43.047],[-6.227,43.009],[-6.285,43.036],[-6.326,43.031],[-6.359,43.06],[-6.424,42.988],[-6.478,42.991],[-6.473,42.968],[-6.434,42.964],[-6.433,42.94],[-6.541,42.913],[-6.639,42.925],[-6.723,42.917],[-6.773,42.883],[-6.771,42.899],[-6.836,42.916],[-6.836,42.958],[-6.871,42.989],[-6.91,42.99],[-6.957,43.037],[-6.962,42.991],[-6.997,43.019],[-6.939,43.087],[-6.916,43.073],[-6.828,43.123],[-6.822,43.143],[-6.839,43.166],[-6.872,43.18],[-6.868,43.19],[-6.885,43.157],[-6.957,43.135],[-6.981,43.167],[-6.965,43.188],[-6.971,43.204],[-7.062,43.244],[-7.072,43.271],[-7.06,43.305],[-7.101,43.304],[-7.131,43.331],[-7.128,43.373],[-7.182,43.392],[-7.169,43.404],[-7.173,43.43],[-7.102,43.427],[-7.089,43.455],[-7.048,43.477],[-7.047,43.509],[-7.023,43.56],[-6.356,43.551],[-6.245,43.595],[-6.113,43.555],[-5.956,43.58],[-5.841,43.661]],[[-6.12,43.557],[-6.12,43.557],[-6.12,43.557],[-6.12,43.557]]]]},"properties":{"prov":"33","name":"Asturias"}},{"type":"Feature","geometry":{"type":"MultiPolygon","coordinates":[[[[-7.68,43.787],[-7.662,43.775],[-7.701,43.737],[-7.703,43.686],[-7.719,43.687],[-7.691,43.654],[-7.76,43.548],[-7.744,43.512],[-7.822,43.402],[-7.882,43.408],[-7.898,43.391],[-7.887,43.337],[-7.947,43.286],[-7.922,43.269],[-7.961,43.19],[-7.917,43.088],[-7.943,43.068],[-7.905,42.985],[-7.916,42.932],[-7.943,42.917],[-7.936,42.903],[-7.995,42.85],[-8.046,42.831],[-8.075,42.853],[-8.117,42.841],[-8.183,42.86],[-8.221,42.844],[-8.207,42.825],[-8.255,42.837],[-8.281,42.811],[-8.315,42.846],[-8.325,42.831],[-8.34,42.841],[-8.332,42.794],[-8.355,42.779],[-8.392,42.789],[-8.415,42.767],[-8.407,42.754],[-8.47,42.744],[-8.557,42.761],[-8.555,42.747],[-8.6,42.743],[-8.607,42.715],[-8.651,42.729],[-8.718,42.706],[-8.747,42.651],[-8.77,42.653],[-8.795,42.637],[-8.845,42.687],[-8.857,42.606],[-8.888,42.611],[-8.873,42.632],[-8.899,42.645],[-8.937,42.607],[-8.92,42.587],[-8.988,42.566],[-8.996,42.53],[-9.043,42.517],[-9.03,42.548],[-9.039,42.566],[-9.091,42.576],[-9.034,42.695],[-8.876,42.829],[-8.963,42.779],[-9.064,42.787],[-9.048,42.77],[-9.086,42.738],[-9.151,42.798],[-9.112,42.813],[-9.108,42.836],[-9.138,42.85],[-9.146,42.867],[-9.15,42.872],[-9.125,42.906],[-9.161,42.912],[-9.173,42.944],[-9.191,42.952],[-9.189,42.915],[-9.233,42.941],[-9.233,42.927],[-9.263,42.919],[-9.273,42.88],[-9.276,42.91],[-9.298,42.923],[-9.257,43.002],[-9.301,43.049],[-9.262,43.049],[-9.22,43.114],[-9.198,43.104],[-9.19,43.09],[-9.167,43.105],[-9.164,43.153],[-9.193,43.122],[-9.214,43.162],[-9.15,43.195],[-9.06,43.185],[-9.013,43.233],[-8.996,43.216],[-8.981,43.229],[-8.94,43.227],[-8.953,43.263],[-8.977,43.262],[-8.991,43.275],[-8.985,43.282],[-8.957,43.294],[-8.928,43.282],[-8.912,43.321],[-8.876,43.312],[-8.848,43.32],[-8.841,43.345],[-8.712,43.29],[-8.535,43.316],[-8.401,43.39],[-8.387,43.339],[-8.356,43.344],[-8.338,43.377],[-8.355,43.39],[-8.307,43.406],[-8.209,43.328],[-8.223,43.387],[-8.174,43.42],[-8.317,43.445],[-8.255,43.466],[-8.201,43.46],[-8.151,43.517],[-8.2,43.477],[-8.249,43.476],[-8.247,43.493],[-8.266,43.468],[-8.341,43.458],[-8.32,43.498],[-8.332,43.513],[-8.296,43.535],[-8.322,43.565],[-8.26,43.558],[-8.093,43.667],[-8.087,43.661],[-8.077,43.644],[-8.054,43.649],[-8.064,43.704],[-8.033,43.715],[-8.026,43.709],[-8,43.705],[-7.904,43.77],[-7.868,43.774],[-7.849,43.71],[-7.876,43.723],[-7.869,43.707],[-7.892,43.685],[-7.872,43.672],[-7.904,43.671],[-7.847,43.668],[-7.868,43.698],[-7.86,43.707],[-7.834,43.711],[-7.839,43.696],[-7.815,43.695],[-7.83,43.71],[-7.813,43.727],[-7.725,43.747],[-7.68,43.787]],[[-8.969,43.225],[-8.969,43.226],[-8.969,43.225],[-8.969,43.225]],[[-7.821,43.715],[-7.821,43.715],[-7.821,43.715],[-7.821,43.715]]]]},"properties":{"prov":"15","name":"A Coruña"}},{"type":"Feature","geometry":{"type":"MultiPolygon","coordinates":[[[[1.749,42.495],[1.824,42.487],[1.892,42.448],[1.937,42.454],[1.965,42.381],[2.015,42.347],[2.085,42.362],[2.148,42.42],[2.207,42.417],[2.257,42.439],[2.433,42.394],[2.433,42.378],[2.481,42.341],[2.531,42.333],[2.571,42.358],[2.672,42.341],[2.651,42.386],[2.671,42.387],[2.672,42.403],[2.734,42.425],[2.799,42.418],[2.84,42.459],[3.033,42.475],[3.085,42.426],[3.175,42.435],[3.155,42.379],[3.163,42.36],[3.195,42.336],[3.229,42.352],[3.322,42.319],[3.264,42.238],[3.23,42.252],[3.218,42.232],[3.163,42.264],[3.112,42.206],[3.124,42.128],[3.177,42.112],[3.17,42.105],[3.215,42.061],[3.199,42.049],[3.196,42.014],[3.234,41.951],[3.203,41.892],[2.935,41.715],[2.778,41.65],[2.758,41.679],[2.777,41.735],[2.658,41.748],[2.547,41.719],[2.516,41.762],[2.469,41.778],[2.472,41.79],[2.353,41.808],[2.326,41.856],[2.328,41.883],[2.37,41.886],[2.383,41.872],[2.407,41.896],[2.443,41.887],[2.481,41.916],[2.429,41.969],[2.499,42.002],[2.506,42.032],[2.482,42.049],[2.49,42.067],[2.458,42.079],[2.418,42.065],[2.394,42.087],[2.4,42.103],[2.366,42.121],[2.295,42.103],[2.3,42.134],[2.27,42.145],[2.126,42.113],[2.092,42.144],[2.06,42.135],[2.004,42.15],[1.991,42.183],[1.966,42.179],[1.965,42.199],[2.007,42.194],[1.996,42.172],[2.005,42.162],[2.061,42.178],[2.053,42.22],[2.03,42.216],[2.017,42.233],[2.07,42.292],[1.903,42.323],[1.842,42.306],[1.835,42.355],[1.855,42.37],[1.83,42.381],[1.806,42.37],[1.802,42.425],[1.732,42.44],[1.724,42.487],[1.749,42.495]],[[3.168,41.863],[3.168,41.863],[3.168,41.863],[3.168,41.863]],[[3.164,41.862],[3.164,41.862],[3.164,41.862],[3.164,41.862]],[[3.164,41.862],[3.164,41.862],[3.164,41.861],[3.164,41.862]],[[3.182,41.886],[3.182,41.886],[3.182,41.886],[3.182,41.886]],[[3.166,41.862],[3.166,41.862],[3.166,41.862],[3.166,41.862]],[[3.162,41.861],[3.162,41.861],[3.162,41.861],[3.162,41.861]],[[3.16,42.117],[3.16,42.117],[3.16,42.116],[3.16,42.117]]]]},"properties":{"prov":"17","name":"Girona"}},{"type":"Feature","geometry":{"type":"MultiPolygon","coordinates":[[[[-13.891,28.757],[-13.836,28.713],[-13.824,28.553],[-13.867,28.48],[-13.85,28.401],[-13.917,28.252],[-14.013,28.208],[-14.218,28.166],[-14.332,28.045],[-14.478,28.077],[-14.507,28.064],[-14.491,28.111],[-14.45,28.1],[-14.373,28.117],[-14.223,28.215],[-14.204,28.328],[-14.033,28.593],[-14.039,28.615],[-14.009,28.678],[-14.021,28.707],[-13.977,28.735],[-13.891,28.757]]],[[[-15.419,28.18],[-15.42,28.06],[-15.373,28.009],[-15.358,27.931],[-15.384,27.927],[-15.386,27.857],[-15.416,27.844],[-15.424,27.808],[-15.599,27.735],[-15.659,27.757],[-15.675,27.749],[-15.788,27.835],[-15.834,27.91],[-15.835,27.971],[-15.823,28.013],[-15.786,28.021],[-15.711,28.083],[-15.696,28.152],[-15.709,28.166],[-15.467,28.126],[-15.419,28.18]]],[[[-13.468,29.229],[-13.424,29.209],[-13.419,29.184],[-13.429,29.154],[-13.464,29.128],[-13.447,29.089],[-13.486,28.993],[-13.641,28.92],[-13.736,28.907],[-13.787,28.839],[-13.802,28.859],[-13.876,28.859],[-13.882,28.886],[-13.829,28.93],[-13.834,28.989],[-13.815,29.033],[-13.658,29.124],[-13.633,29.116],[-13.602,29.136],[-13.548,29.119],[-13.525,29.141],[-13.497,29.218],[-13.468,29.229]]]]},"properties":{"prov":"35","name":"Las Palmas"}},{"type":"Feature","geometry":{"type":"MultiPolygon","coordinates":[[[[-8.181,42.858],[-8.116,42.841],[-8.075,42.853],[-8.047,42.831],[-8.014,42.85],[-7.969,42.85],[-7.956,42.84],[-7.98,42.811],[-7.978,42.779],[-7.935,42.74],[-7.866,42.721],[-7.861,42.706],[-7.89,42.684],[-7.893,42.63],[-7.93,42.579],[-7.992,42.572],[-8.019,42.542],[-8.09,42.558],[-8.147,42.549],[-8.174,42.572],[-8.303,42.49],[-8.366,42.487],[-8.342,42.466],[-8.315,42.381],[-8.325,42.345],[-8.262,42.315],[-8.265,42.253],[-8.229,42.233],[-8.163,42.245],[-8.164,42.222],[-8.192,42.209],[-8.161,42.179],[-8.332,42.084],[-8.524,42.078],[-8.557,42.051],[-8.637,42.047],[-8.872,41.866],[-8.901,42.112],[-8.852,42.128],[-8.826,42.115],[-8.82,42.141],[-8.85,42.157],[-8.775,42.222],[-8.713,42.241],[-8.661,42.285],[-8.611,42.288],[-8.624,42.31],[-8.612,42.345],[-8.69,42.28],[-8.873,42.25],[-8.856,42.31],[-8.832,42.278],[-8.817,42.279],[-8.818,42.314],[-8.839,42.339],[-8.791,42.327],[-8.755,42.34],[-8.652,42.428],[-8.839,42.384],[-8.881,42.415],[-8.871,42.435],[-8.883,42.455],[-8.933,42.453],[-8.937,42.479],[-8.872,42.501],[-8.856,42.473],[-8.873,42.462],[-8.869,42.448],[-8.856,42.451],[-8.848,42.46],[-8.82,42.452],[-8.831,42.484],[-8.805,42.501],[-8.835,42.565],[-8.795,42.58],[-8.785,42.6],[-8.772,42.593],[-8.779,42.614],[-8.728,42.668],[-8.718,42.706],[-8.651,42.729],[-8.607,42.715],[-8.6,42.743],[-8.556,42.746],[-8.553,42.761],[-8.431,42.746],[-8.407,42.754],[-8.415,42.767],[-8.392,42.789],[-8.355,42.779],[-8.332,42.794],[-8.34,42.841],[-8.325,42.831],[-8.315,42.846],[-8.279,42.811],[-8.181,42.858]]]]},"properties":{"prov":"36","name":"Pontevedra"}},{"type":"Feature","geometry":{"type":"MultiPolygon","coordinates":[[[[-16.158,28.588],[-16.126,28.532],[-16.237,28.485],[-16.36,28.38],[-16.361,28.304],[-16.425,28.204],[-16.425,28.15],[-16.547,28.025],[-16.595,28.029],[-16.644,28.004],[-16.702,28.004],[-16.838,28.208],[-16.841,28.264],[-16.897,28.332],[-16.926,28.342],[-16.918,28.361],[-16.832,28.393],[-16.808,28.376],[-16.752,28.371],[-16.514,28.419],[-16.329,28.577],[-16.224,28.565],[-16.193,28.572],[-16.158,28.588]],[[-16.54,28.035],[-16.541,28.035],[-16.541,28.035],[-16.54,28.035]],[[-16.652,28.007],[-16.652,28.007],[-16.652,28.008],[-16.652,28.007]],[[-16.883,28.371],[-16.883,28.371],[-16.883,28.371],[-16.883,28.371]]],[[[-17.911,28.858],[-17.778,28.84],[-17.725,28.743],[-17.77,28.677],[-17.75,28.624],[-17.76,28.57],[-17.841,28.453],[-18.007,28.758],[-17.911,28.858]],[[-17.805,28.509],[-17.805,28.509],[-17.805,28.509],[-17.805,28.509]],[[-17.802,28.513],[-17.802,28.513],[-17.802,28.513],[-17.802,28.513]],[[-17.956,28.658],[-17.957,28.658],[-17.957,28.658],[-17.956,28.658]],[[-17.822,28.482],[-17.821,28.482],[-17.821,28.482],[-17.822,28.482]],[[-18.005,28.766],[-18.005,28.766],[-18.005,28.766],[-18.005,28.766]],[[-17.963,28.675],[-17.963,28.675],[-17.963,28.675],[-17.963,28.675]],[[-17.868,28.474],[-17.868,28.474],[-17.868,28.474],[-17.868,28.474]],[[-17.814,28.497],[-17.814,28.497],[-17.814,28.497],[-17.814,28.497]],[[-17.744,28.766],[-17.744,28.766],[-17.744,28.766],[-17.744,28.766]],[[-17.964,28.676],[-17.964,28.676],[-17.964,28.676],[-17.964,28.676]],[[-18.005,28.766],[-18.005,28.766],[-18.005,28.766],[-18.005,28.766]],[[-17.876,28.838],[-17.876,28.837],[-17.876,28.838],[-17.876,28.838]]],[[[-17.261,28.218],[-17.104,28.128],[-17.098,28.096],[-17.168,28.036],[-17.27,28.025],[-17.349,28.098],[-17.32,28.203],[-17.261,28.218]],[[-17.258,28.212],[-17.258,28.212],[-17.258,28.212],[-17.258,28.212]],[[-17.253,28.206],[-17.253,28.206],[-17.253,28.206],[-17.253,28.206]],[[-17.253,28.21],[-17.253,28.21],[-17.253,28.21],[-17.253,28.21]],[[-17.258,28.212],[-17.258,28.212],[-17.258,28.212],[-17.258,28.212]],[[-17.329,28.081],[-17.329,28.081],[-17.329,28.081],[-17.329,28.081]],[[-17.261,28.217],[-17.26,28.217],[-17.261,28.217],[-17.261,28.217]],[[-17.261,28.217],[-17.261,28.217],[-17.261,28.217],[-17.261,28.217]],[[-17.26,28.215],[-17.26,28.215],[-17.26,28.215],[-17.26,28.215]],[[-17.253,28.206],[-17.253,28.206],[-17.253,28.206],[-17.253,28.206]]],[[[-17.925,27.85],[-17.902,27.842],[-17.884,27.813],[-17.884,27.803],[-17.927,27.732],[-17.957,27.72],[-17.978,27.64],[-18.01,27.65],[-18.05,27.693],[-18.16,27.715],[-18.152,27.761],[-18.037,27.762],[-17.989,27.8],[-17.993,27.823],[-17.925,27.85]],[[-18.152,27.739],[-18.152,27.739],[-18.152,27.739],[-18.152,27.739]]]]},"properties":{"prov":"38","name":"Santa Cruz De Tenerife"}},{"type":"Feature","geometry":{"type":"MultiPolygon","coordinates":[[[[-3.59,43.514],[-3.546,43.508],[-3.498,43.472],[-3.431,43.462],[-3.43,43.441],[-3.465,43.445],[-3.492,43.425],[-3.464,43.431],[-3.465,43.404],[-3.45,43.436],[-3.221,43.394],[-3.226,43.388],[-3.212,43.375],[-3.153,43.353],[-3.152,43.307],[-3.21,43.284],[-3.225,43.309],[-3.279,43.29],[-3.332,43.302],[-3.34,43.278],[-3.449,43.236],[-3.418,43.133],[-3.604,43.15],[-3.612,43.17],[-3.651,43.181],[-3.705,43.116],[-3.755,43.101],[-3.765,43.081],[-3.847,43.084],[-3.832,43.064],[-3.85,43.04],[-3.891,43.042],[-3.909,43.016],[-3.953,43],[-3.991,42.931],[-3.974,42.912],[-3.93,42.915],[-3.934,42.9],[-3.867,42.955],[-3.831,42.929],[-3.924,42.889],[-3.897,42.88],[-3.915,42.86],[-3.88,42.851],[-3.864,42.89],[-3.835,42.877],[-3.816,42.811],[-3.862,42.787],[-3.894,42.805],[-3.911,42.768],[-3.977,42.758],[-4,42.769],[-4.004,42.831],[-4.055,42.763],[-4.081,42.761],[-4.105,42.793],[-4.15,42.789],[-4.185,42.817],[-4.158,42.838],[-4.14,42.829],[-4.126,42.857],[-4.15,42.871],[-4.214,42.847],[-4.24,42.957],[-4.348,42.973],[-4.398,43.035],[-4.448,43.059],[-4.558,43.02],[-4.606,43.036],[-4.638,43.017],[-4.723,43.017],[-4.851,43.126],[-4.835,43.157],[-4.848,43.178],[-4.734,43.19],[-4.72,43.236],[-4.731,43.257],[-4.632,43.268],[-4.607,43.301],[-4.555,43.288],[-4.548,43.269],[-4.524,43.278],[-4.522,43.336],[-4.539,43.356],[-4.511,43.394],[-4.175,43.401],[-3.785,43.492],[-3.763,43.467],[-3.814,43.449],[-3.825,43.452],[-3.816,43.402],[-3.746,43.452],[-3.777,43.458],[-3.735,43.459],[-3.59,43.514]],[[-4.111,42.824],[-4.104,42.797],[-4.089,42.8],[-4.089,42.818],[-4.111,42.824]],[[-3.628,43.498],[-3.628,43.498],[-3.629,43.498],[-3.628,43.498]]]]},"properties":{"prov":"39","name":"Cantabria"}},{"type":"Feature","geometry":{"type":"MultiPolygon","coordinates":[[[[-4.407,37.274],[-4.379,37.274],[-4.385,37.238],[-4.372,37.215],[-4.322,37.204],[-4.332,37.191],[-4.287,37.12],[-4.273,37.015],[-4.231,37.017],[-4.167,36.957],[-4.1,36.953],[-4.046,36.903],[-3.93,36.883],[-3.868,36.851],[-3.827,36.855],[-3.768,36.802],[-3.777,36.738],[-3.845,36.754],[-3.957,36.726],[-4.067,36.749],[-4.108,36.725],[-4.181,36.715],[-4.419,36.717],[-4.417,36.709],[-4.512,36.593],[-4.603,36.563],[-4.638,36.507],[-4.741,36.483],[-4.861,36.508],[-4.935,36.5],[-5.005,36.46],[-5.081,36.451],[-5.177,36.414],[-5.22,36.375],[-5.248,36.31],[-5.278,36.337],[-5.32,36.325],[-5.347,36.419],[-5.43,36.533],[-5.492,36.536],[-5.524,36.498],[-5.608,36.512],[-5.604,36.549],[-5.523,36.531],[-5.461,36.589],[-5.456,36.62],[-5.381,36.632],[-5.324,36.673],[-5.325,36.724],[-5.291,36.775],[-5.32,36.787],[-5.341,36.819],[-5.302,36.87],[-5.27,36.884],[-5.172,36.824],[-5.133,36.839],[-5.105,36.898],[-5.087,36.905],[-5.11,36.959],[-5.096,36.968],[-5.142,37.006],[-5.121,37.028],[-5.053,37.031],[-4.908,37.115],[-4.903,37.139],[-4.943,37.158],[-4.94,37.176],[-4.905,37.182],[-4.898,37.156],[-4.875,37.158],[-4.854,37.199],[-4.826,37.201],[-4.794,37.154],[-4.709,37.198],[-4.72,37.26],[-4.614,37.255],[-4.602,37.209],[-4.576,37.209],[-4.407,37.274]]]]},"properties":{"prov":"29","name":"Málaga"}},{"type":"Feature","geometry":{"type":"MultiPolygon","coordinates":[[[[-2.182,37.899],[-1.975,37.868],[-2.013,37.701],[-2.012,37.672],[-1.977,37.619],[-1.845,37.455],[-1.809,37.433],[-1.812,37.452],[-1.737,37.443],[-1.63,37.375],[-1.798,37.23],[-1.849,37.068],[-1.901,36.988],[-1.904,36.937],[-1.941,36.937],[-1.967,36.899],[-1.992,36.894],[-2,36.84],[-2.06,36.81],[-2.06,36.778],[-2.106,36.763],[-2.124,36.732],[-2.184,36.719],[-2.291,36.82],[-2.361,36.842],[-2.427,36.811],[-2.475,36.837],[-2.464,36.826],[-2.482,36.836],[-2.562,36.816],[-2.62,36.727],[-2.7,36.683],[-2.772,36.681],[-2.816,36.706],[-2.849,36.695],[-2.925,36.752],[-2.978,36.738],[-3.129,36.751],[-3.14,36.788],[-3.029,36.844],[-3.072,36.919],[-2.976,36.978],[-3.006,37.023],[-3.03,37.113],[-3,37.095],[-2.949,37.097],[-2.845,37.279],[-2.66,37.212],[-2.642,37.388],[-2.514,37.48],[-2.458,37.491],[-2.456,37.509],[-2.359,37.522],[-2.391,37.632],[-2.36,37.621],[-2.309,37.633],[-2.323,37.694],[-2.277,37.776],[-2.302,37.808],[-2.289,37.831],[-2.295,37.876],[-2.208,37.917],[-2.182,37.899]]]]},"properties":{"prov":"04","name":"Almería"}},{"type":"Feature","geometry":{"type":"MultiPolygon","coordinates":[[[[-1.15,38.746],[-1.12,38.738],[-1.116,38.711],[-1.026,38.655],[-1.002,38.573],[-1.026,38.523],[-1.014,38.497],[-1.094,38.438],[-1.077,38.431],[-1.084,38.346],[-0.989,38.321],[-0.968,38.276],[-0.989,38.2],[-1.037,38.138],[-1.023,38.076],[-0.9,37.923],[-0.831,37.864],[-0.762,37.847],[-0.751,37.822],[-0.752,37.788],[-0.776,37.819],[-0.796,37.811],[-0.798,37.785],[-0.845,37.748],[-0.857,37.713],[-0.803,37.658],[-0.728,37.635],[-0.746,37.781],[-0.731,37.678],[-0.71,37.641],[-0.688,37.633],[-0.919,37.554],[-0.992,37.602],[-0.984,37.584],[-1.018,37.573],[-1.031,37.579],[-1.074,37.584],[-1.109,37.569],[-1.127,37.552],[-1.111,37.534],[-1.166,37.542],[-1.174,37.563],[-1.213,37.575],[-1.246,37.576],[-1.256,37.558],[-1.326,37.563],[-1.402,37.507],[-1.46,37.487],[-1.486,37.423],[-1.519,37.432],[-1.627,37.374],[-1.737,37.443],[-1.812,37.452],[-1.809,37.433],[-1.845,37.455],[-2.012,37.672],[-1.975,37.868],[-2.172,37.889],[-2.247,37.934],[-2.298,38.002],[-2.342,38.026],[-2.33,38.065],[-2.262,38.113],[-2.213,38.203],[-2.114,38.238],[-2.049,38.306],[-1.983,38.281],[-1.908,38.298],[-1.745,38.381],[-1.688,38.366],[-1.693,38.338],[-1.67,38.312],[-1.59,38.31],[-1.558,38.325],[-1.479,38.376],[-1.48,38.48],[-1.499,38.532],[-1.422,38.677],[-1.15,38.746]]]]},"properties":{"prov":"30","name":"Murcia"}},{"type":"Feature","geometry":{"type":"MultiPolygon","coordinates":[[[[-1.484,39.418],[-1.455,39.361],[-1.432,39.378],[-1.426,39.363],[-1.415,39.38],[-1.337,39.334],[-1.313,39.343],[-1.165,39.311],[-1.181,39.212],[-1.256,39.106],[-1.267,39.051],[-1.227,39.025],[-1.147,38.929],[-0.959,38.945],[-0.925,38.823],[-0.929,38.784],[-0.961,38.775],[-0.916,38.696],[-0.962,38.657],[-1.034,38.657],[-1.116,38.711],[-1.12,38.738],[-1.184,38.755],[-1.25,38.739],[-1.344,38.677],[-1.367,38.704],[-1.384,38.699],[-1.448,38.65],[-1.452,38.581],[-1.488,38.563],[-1.497,38.538],[-1.48,38.48],[-1.479,38.376],[-1.558,38.325],[-1.59,38.31],[-1.67,38.312],[-1.693,38.338],[-1.689,38.367],[-1.769,38.379],[-1.908,38.298],[-1.983,38.281],[-2.023,38.301],[-2.064,38.298],[-2.114,38.238],[-2.213,38.203],[-2.262,38.113],[-2.33,38.065],[-2.342,38.026],[-2.422,38.033],[-2.547,38.08],[-2.446,38.185],[-2.454,38.215],[-2.437,38.272],[-2.485,38.3],[-2.482,38.396],[-2.572,38.414],[-2.567,38.49],[-2.593,38.511],[-2.68,38.497],[-2.764,38.535],[-2.764,38.628],[-2.728,38.616],[-2.669,38.649],[-2.638,38.735],[-2.696,38.783],[-2.732,38.782],[-2.762,38.881],[-2.883,38.938],[-2.832,39.023],[-2.81,39.024],[-2.805,39.079],[-2.843,39.134],[-2.723,39.265],[-2.743,39.317],[-2.511,39.342],[-2.374,39.233],[-2.35,39.279],[-2.321,39.284],[-2.289,39.227],[-2.169,39.281],[-2.051,39.267],[-2.096,39.359],[-2.02,39.352],[-2.028,39.337],[-1.99,39.294],[-1.887,39.305],[-1.77,39.281],[-1.739,39.321],[-1.556,39.402],[-1.484,39.418]]]]},"properties":{"prov":"02","name":"Albacete"}},{"type":"Feature","geometry":{"type":"MultiPolygon","coordinates":[[[[-5.014,41.164],[-4.864,41.094],[-4.722,41.149],[-4.713,41.062],[-4.638,41.031],[-4.607,40.971],[-4.566,40.956],[-4.56,40.886],[-4.532,40.859],[-4.557,40.836],[-4.546,40.826],[-4.494,40.834],[-4.474,40.775],[-4.431,40.742],[-4.42,40.633],[-4.16,40.69],[-4.174,40.674],[-4.161,40.623],[-4.245,40.602],[-4.262,40.605],[-4.271,40.629],[-4.291,40.628],[-4.279,40.603],[-4.289,40.564],[-4.328,40.534],[-4.316,40.465],[-4.341,40.429],[-4.321,40.41],[-4.422,40.406],[-4.456,40.319],[-4.503,40.315],[-4.527,40.345],[-4.546,40.342],[-4.529,40.293],[-4.569,40.257],[-4.566,40.218],[-4.654,40.198],[-4.687,40.212],[-4.698,40.282],[-4.762,40.261],[-4.803,40.275],[-4.818,40.255],[-4.808,40.235],[-4.925,40.17],[-4.925,40.136],[-4.956,40.133],[-4.955,40.121],[-5.013,40.111],[-5.007,40.13],[-5.027,40.158],[-5.068,40.15],[-5.141,40.092],[-5.2,40.082],[-5.215,40.108],[-5.336,40.116],[-5.368,40.164],[-5.37,40.218],[-5.344,40.265],[-5.429,40.253],[-5.471,40.208],[-5.531,40.195],[-5.737,40.294],[-5.673,40.349],[-5.686,40.355],[-5.678,40.387],[-5.691,40.422],[-5.634,40.46],[-5.561,40.477],[-5.575,40.444],[-5.526,40.422],[-5.511,40.426],[-5.51,40.464],[-5.466,40.466],[-5.429,40.564],[-5.525,40.541],[-5.516,40.585],[-5.501,40.597],[-5.5,40.582],[-5.448,40.58],[-5.383,40.621],[-5.366,40.649],[-5.385,40.671],[-5.214,40.758],[-5.219,40.773],[-5.162,40.814],[-5.164,40.868],[-5.115,40.903],[-5.128,40.954],[-5.105,40.96],[-5.09,40.997],[-5.107,41.029],[-5.147,41.044],[-5.149,41.092],[-5.129,41.105],[-5.124,41.136],[-5.1,41.147],[-5.06,41.139],[-5.014,41.164]]]]},"properties":{"prov":"05","name":"Ávila"}},{"type":"Feature","geometry":{"type":"MultiPolygon","coordinates":[[[[-3.027,43.217],[-3.007,43.197],[-2.98,43.202],[-2.946,43.171],[-2.954,43.16],[-2.936,43.136],[-2.975,43.099],[-2.894,43.046],[-2.634,43.02],[-2.634,43.045],[-2.662,43.074],[-2.547,43.088],[-2.525,43.045],[-2.55,43.02],[-2.597,43.009],[-2.603,42.982],[-2.581,42.964],[-2.543,42.95],[-2.535,42.973],[-2.355,42.95],[-2.241,42.886],[-2.235,42.835],[-2.281,42.785],[-2.262,42.748],[-2.317,42.739],[-2.324,42.724],[-2.317,42.683],[-2.294,42.678],[-2.288,42.655],[-2.382,42.634],[-2.376,42.651],[-2.416,42.663],[-2.483,42.612],[-2.5,42.616],[-2.491,42.585],[-2.462,42.587],[-2.453,42.567],[-2.421,42.607],[-2.397,42.599],[-2.392,42.517],[-2.423,42.511],[-2.421,42.489],[-2.515,42.49],[-2.511,42.52],[-2.537,42.495],[-2.53,42.484],[-2.568,42.494],[-2.597,42.473],[-2.605,42.504],[-2.648,42.483],[-2.676,42.526],[-2.706,42.517],[-2.681,42.595],[-2.741,42.623],[-2.764,42.623],[-2.778,42.581],[-2.825,42.555],[-2.841,42.581],[-2.82,42.591],[-2.819,42.613],[-2.842,42.609],[-2.843,42.63],[-2.896,42.655],[-2.903,42.694],[-2.931,42.708],[-2.981,42.704],[-3.017,42.741],[-3.042,42.74],[-3.05,42.766],[-3.148,42.757],[-3.123,42.789],[-3.159,42.805],[-3.113,42.861],[-3.115,42.889],[-3.163,42.857],[-3.191,42.869],[-3.222,42.839],[-3.206,42.827],[-3.283,42.876],[-3.277,42.902],[-3.249,42.912],[-3.225,42.95],[-3.145,42.935],[-3.149,42.917],[-3.092,42.899],[-3.019,42.909],[-2.981,42.939],[-3.045,42.974],[-2.956,42.999],[-2.986,42.992],[-2.986,43.012],[-3.033,43.02],[-3.019,43.038],[-3.029,43.047],[-3.05,43.047],[-3.089,43.002],[-3.178,43.022],[-3.142,43.03],[-3.14,43.067],[-3.158,43.074],[-3.134,43.097],[-3.182,43.12],[-3.162,43.154],[-3.138,43.163],[-3.111,43.143],[-3.027,43.161],[-3.017,43.203],[-3.04,43.21],[-3.027,43.217]],[[-2.835,42.796],[-2.868,42.74],[-2.785,42.699],[-2.768,42.666],[-2.659,42.672],[-2.635,42.648],[-2.517,42.646],[-2.522,42.684],[-2.578,42.668],[-2.609,42.696],[-2.573,42.725],[-2.558,42.763],[-2.835,42.796]]]]},"properties":{"prov":"01","name":"Araba/Álava"}},{"type":"Feature","geometry":{"type":"MultiPolygon","coordinates":[[[[-4.678,39.435],[-4.672,39.414],[-4.704,39.364],[-4.707,39.328],[-4.761,39.321],[-4.708,39.21],[-4.649,39.165],[-4.81,39.199],[-4.853,39.152],[-4.874,39.1],[-4.827,39.064],[-4.833,39.046],[-4.88,39.032],[-4.963,39.059],[-4.918,38.957],[-4.832,38.939],[-4.847,38.882],[-4.915,38.887],[-4.943,38.854],[-4.99,38.74],[-5.099,38.708],[-5.185,38.72],[-5.167,38.68],[-5.186,38.674],[-5.184,38.66],[-5.208,38.668],[-5.309,38.578],[-5.372,38.584],[-5.419,38.513],[-5.568,38.433],[-5.584,38.4],[-5.559,38.367],[-5.576,38.329],[-5.526,38.264],[-5.52,38.208],[-5.539,38.201],[-5.54,38.161],[-5.576,38.15],[-5.585,38.132],[-5.633,38.138],[-5.694,38.084],[-5.735,38.086],[-5.739,38.133],[-5.695,38.15],[-5.706,38.169],[-5.684,38.158],[-5.689,38.182],[-5.728,38.197],[-5.875,38.158],[-5.881,38.132],[-5.926,38.105],[-5.909,38.063],[-5.934,38.047],[-5.954,37.995],[-6.115,37.982],[-6.18,37.941],[-6.202,37.962],[-6.304,37.978],[-6.353,38.007],[-6.367,38.049],[-6.414,38.059],[-6.452,38.056],[-6.444,38.047],[-6.477,38.008],[-6.546,38.028],[-6.582,38.021],[-6.581,38.053],[-6.622,38.097],[-6.808,38.111],[-6.795,38.179],[-6.855,38.179],[-6.938,38.207],[-6.936,38.221],[-7.086,38.169],[-7.281,38.42],[-7.336,38.435],[-7.244,38.624],[-7.27,38.639],[-7.255,38.726],[-7.039,38.865],[-7.033,38.879],[-7.052,38.907],[-6.951,39.024],[-6.996,39.099],[-7.039,39.118],[-7.106,39.099],[-7.144,39.109],[-7.135,39.171],[-7.241,39.209],[-7.248,39.254],[-7.231,39.278],[-7.204,39.266],[-7.155,39.314],[-7.155,39.33],[-7.169,39.32],[-7.178,39.331],[-7.154,39.368],[-7.074,39.381],[-7.102,39.346],[-7.077,39.31],[-7.044,39.327],[-7.033,39.368],[-7.009,39.388],[-7.067,39.414],[-7.049,39.437],[-6.883,39.383],[-6.802,39.389],[-6.797,39.345],[-6.747,39.322],[-6.761,39.277],[-6.801,39.239],[-6.768,39.188],[-6.681,39.177],[-6.66,39.199],[-6.633,39.197],[-6.58,39.18],[-6.574,39.158],[-6.54,39.155],[-6.54,39.182],[-6.379,39.163],[-6.324,39.186],[-6.312,39.112],[-6.142,39.032],[-6.019,39.129],[-6.009,39.053],[-5.942,39.109],[-5.927,39.105],[-5.938,39.084],[-5.925,39.083],[-5.833,39.11],[-5.81,39.145],[-5.755,39.132],[-5.687,39.082],[-5.646,39.102],[-5.604,39.1],[-5.584,39.118],[-5.601,39.134],[-5.577,39.151],[-5.613,39.188],[-5.551,39.216],[-5.413,39.157],[-5.384,39.174],[-5.349,39.234],[-5.34,39.333],[-5.248,39.302],[-5.124,39.336],[-5.114,39.387],[-5.09,39.39],[-5.054,39.362],[-4.985,39.372],[-4.974,39.395],[-4.936,39.396],[-4.871,39.368],[-4.775,39.397],[-4.69,39.452],[-4.678,39.435]]]]},"properties":{"prov":"06","name":"Badajoz"}},{"type":"Feature","geometry":{"type":"MultiPolygon","coordinates":[[[[-0.16,38.884],[-0.148,38.858],[-0.071,38.886],[-0.035,38.857],[-0.025,38.873],[-0.038,38.887],[0.015,38.864],[0.126,38.849],[0.11,38.846],[0.198,38.804],[0.182,38.794],[0.19,38.773],[0.234,38.737],[0.182,38.721],[0.149,38.679],[0.098,38.673],[0.074,38.645],[0.084,38.631],[0.051,38.641],[0.031,38.626],[-0.016,38.627],[-0.062,38.582],[-0.05,38.562],[-0.098,38.523],[-0.152,38.535],[-0.375,38.443],[-0.405,38.401],[-0.404,38.352],[-0.444,38.363],[-0.511,38.326],[-0.514,38.197],[-0.595,38.188],[-0.631,38.149],[-0.648,38],[-0.749,37.9],[-0.762,37.847],[-0.832,37.865],[-0.921,37.944],[-1.023,38.076],[-1.037,38.138],[-0.989,38.2],[-0.968,38.276],[-0.989,38.321],[-1.084,38.346],[-1.088,38.368],[-1.077,38.431],[-1.094,38.438],[-1.014,38.497],[-1.026,38.523],[-1.002,38.573],[-1.027,38.656],[-0.962,38.657],[-0.916,38.696],[-0.961,38.775],[-0.929,38.784],[-0.905,38.767],[-0.862,38.771],[-0.835,38.732],[-0.735,38.759],[-0.707,38.734],[-0.644,38.728],[-0.642,38.704],[-0.618,38.687],[-0.507,38.743],[-0.53,38.767],[-0.566,38.755],[-0.591,38.797],[-0.462,38.808],[-0.403,38.84],[-0.381,38.835],[-0.311,38.882],[-0.231,38.853],[-0.16,38.884]]]]},"properties":{"prov":"03","name":"Alacant/Alicante"}},{"type":"Feature","geometry":{"type":"MultiPolygon","coordinates":[[[[-7.92,42.567],[-7.889,42.541],[-7.924,42.525],[-7.902,42.521],[-7.913,42.508],[-7.875,42.511],[-7.801,42.48],[-7.765,42.494],[-7.748,42.48],[-7.788,42.473],[-7.789,42.466],[-7.713,42.452],[-7.698,42.43],[-7.631,42.407],[-7.619,42.385],[-7.307,42.429],[-7.22,42.387],[-7.231,42.359],[-7.203,42.326],[-7.149,42.436],[-7.1,42.459],[-7.077,42.508],[-6.979,42.493],[-6.96,42.518],[-6.925,42.519],[-6.86,42.489],[-6.823,42.491],[-6.808,42.469],[-6.823,42.453],[-6.814,42.427],[-6.844,42.406],[-6.734,42.359],[-6.734,42.319],[-6.767,42.257],[-6.803,42.239],[-6.787,42.216],[-6.844,42.228],[-6.878,42.22],[-7.034,42.074],[-7.012,42.052],[-6.975,42.055],[-6.961,42.028],[-7.006,41.951],[-7.178,41.98],[-7.19,41.942],[-7.174,41.92],[-7.197,41.88],[-7.233,41.867],[-7.316,41.843],[-7.367,41.852],[-7.427,41.807],[-7.426,41.831],[-7.453,41.865],[-7.502,41.87],[-7.521,41.842],[-7.614,41.829],[-7.586,41.882],[-7.654,41.881],[-7.701,41.908],[-7.845,41.882],[-7.846,41.864],[-7.876,41.849],[-7.892,41.86],[-7.884,41.924],[-7.906,41.927],[-7.921,41.879],[-7.981,41.872],[-8.013,41.829],[-8.094,41.809],[-8.165,41.818],[-8.171,41.879],[-8.2,41.874],[-8.217,41.914],[-8.163,41.983],[-8.085,42.017],[-8.084,42.047],[-8.119,42.082],[-8.187,42.075],[-8.199,42.154],[-8.161,42.179],[-8.192,42.209],[-8.165,42.221],[-8.162,42.244],[-8.229,42.233],[-8.265,42.253],[-8.262,42.315],[-8.325,42.345],[-8.315,42.381],[-8.342,42.466],[-8.366,42.487],[-8.303,42.49],[-8.174,42.572],[-8.147,42.549],[-8.09,42.558],[-8.019,42.542],[-7.992,42.572],[-7.928,42.579],[-7.92,42.567]]]]},"properties":{"prov":"32","name":"Ourense"}},{"type":"Feature","geometry":{"type":"MultiPolygon","coordinates":[[[[1.918,42.318],[2.07,42.292],[2.017,42.233],[2.03,42.216],[2.053,42.22],[2.061,42.178],[2.005,42.162],[1.996,42.172],[2.007,42.194],[1.965,42.199],[1.966,42.179],[1.991,42.183],[2.004,42.15],[2.06,42.135],[2.092,42.144],[2.126,42.113],[2.27,42.145],[2.3,42.134],[2.295,42.103],[2.366,42.121],[2.4,42.103],[2.394,42.087],[2.418,42.065],[2.458,42.079],[2.49,42.067],[2.482,42.049],[2.506,42.032],[2.499,42.002],[2.429,41.969],[2.481,41.916],[2.443,41.887],[2.407,41.896],[2.383,41.872],[2.37,41.886],[2.328,41.883],[2.326,41.856],[2.352,41.81],[2.472,41.79],[2.469,41.778],[2.516,41.762],[2.547,41.719],[2.658,41.748],[2.777,41.735],[2.758,41.679],[2.778,41.65],[2.555,41.579],[2.369,41.49],[2.266,41.459],[2.116,41.29],[1.647,41.193],[1.641,41.235],[1.624,41.223],[1.583,41.236],[1.57,41.261],[1.62,41.254],[1.637,41.296],[1.588,41.294],[1.596,41.309],[1.559,41.343],[1.578,41.362],[1.537,41.385],[1.509,41.394],[1.473,41.381],[1.485,41.475],[1.396,41.513],[1.454,41.569],[1.42,41.583],[1.393,41.575],[1.407,41.6],[1.36,41.614],[1.392,41.634],[1.448,41.636],[1.415,41.675],[1.423,41.684],[1.382,41.706],[1.425,41.733],[1.403,41.745],[1.417,41.795],[1.471,41.801],[1.461,41.777],[1.483,41.771],[1.482,41.791],[1.505,41.788],[1.531,41.753],[1.573,41.782],[1.594,41.778],[1.589,41.805],[1.611,41.818],[1.63,41.859],[1.619,41.882],[1.569,41.88],[1.653,41.929],[1.65,41.98],[1.719,41.984],[1.698,42.015],[1.697,41.985],[1.648,42],[1.656,42.021],[1.666,42.004],[1.699,42.029],[1.692,42.046],[1.67,42.044],[1.691,42.087],[1.722,42.091],[1.699,42.136],[1.739,42.177],[1.738,42.189],[1.68,42.206],[1.68,42.224],[1.705,42.239],[1.685,42.256],[1.69,42.277],[1.67,42.282],[1.918,42.318]],[[2.022,42.128],[2.003,42.126],[2.008,42.107],[2.03,42.121],[2.022,42.128]]]]},"properties":{"prov":"08","name":"Barcelona"}},{"type":"Feature","geometry":{"type":"MultiPolygon","coordinates":[[[[-3.249,43.196],[-3.224,43.17],[-3.159,43.178],[-3.141,43.165],[-3.182,43.121],[-3.134,43.097],[-3.158,43.074],[-3.14,43.067],[-3.142,43.029],[-3.178,43.022],[-3.06,43.004],[-3.041,42.97],[-2.981,42.939],[-3.019,42.909],[-3.092,42.899],[-3.149,42.917],[-3.145,42.935],[-3.225,42.95],[-3.249,42.912],[-3.277,42.902],[-3.283,42.876],[-3.206,42.827],[-3.222,42.839],[-3.191,42.869],[-3.163,42.857],[-3.115,42.889],[-3.113,42.861],[-3.159,42.805],[-3.123,42.789],[-3.148,42.757],[-3.05,42.766],[-3.042,42.74],[-3.017,42.741],[-2.981,42.704],[-2.931,42.708],[-2.903,42.694],[-2.896,42.655],[-2.858,42.638],[-2.916,42.62],[-2.946,42.639],[-3.084,42.641],[-3.06,42.589],[-3.134,42.542],[-3.073,42.529],[-3.095,42.488],[-3.046,42.445],[-3.063,42.425],[-3.057,42.37],[-3.083,42.397],[-3.078,42.416],[-3.101,42.417],[-3.105,42.386],[-3.085,42.385],[-3.063,42.357],[-3.11,42.351],[-3.089,42.246],[-3.129,42.198],[-3.034,42.086],[-2.931,42.087],[-2.914,42.023],[-3.017,41.887],[-3.097,41.881],[-3.136,41.812],[-3.171,41.793],[-3.284,41.884],[-3.275,41.769],[-3.354,41.737],[-3.358,41.693],[-3.393,41.691],[-3.459,41.59],[-3.529,41.613],[-3.573,41.565],[-3.617,41.577],[-3.661,41.566],[-3.728,41.518],[-3.724,41.479],[-3.739,41.451],[-3.77,41.46],[-3.766,41.538],[-3.804,41.525],[-3.788,41.486],[-3.824,41.481],[-3.895,41.552],[-3.982,41.584],[-4.006,41.619],[-4.035,41.621],[-4.026,41.692],[-4.077,41.734],[-4.056,41.741],[-4.038,41.79],[-4.09,41.831],[-4.079,41.848],[-4.089,41.871],[-4.038,41.873],[-3.981,41.901],[-3.981,41.931],[-3.929,41.959],[-3.892,41.958],[-3.89,41.991],[-3.91,41.997],[-4.033,41.954],[-4.015,41.999],[-3.971,42.033],[-3.982,42.051],[-4.039,42.053],[-4.08,42.037],[-4.104,42.062],[-4.103,42.087],[-4.077,42.083],[-4.056,42.101],[-4.104,42.11],[-4.12,42.128],[-4.205,42.134],[-4.189,42.176],[-4.231,42.208],[-4.273,42.386],[-4.322,42.38],[-4.331,42.391],[-4.316,42.41],[-4.335,42.431],[-4.317,42.459],[-4.243,42.456],[-4.303,42.555],[-4.264,42.618],[-4.293,42.691],[-4.267,42.705],[-4.257,42.688],[-4.145,42.753],[-4.11,42.734],[-4.085,42.764],[-3.991,42.771],[-3.966,42.759],[-3.911,42.768],[-3.894,42.805],[-3.863,42.786],[-3.823,42.799],[-3.827,42.871],[-3.864,42.89],[-3.88,42.851],[-3.915,42.86],[-3.897,42.88],[-3.924,42.889],[-3.834,42.918],[-3.84,42.94],[-3.887,42.949],[-3.891,42.925],[-3.934,42.9],[-3.93,42.915],[-3.975,42.912],[-3.987,42.941],[-3.945,43.006],[-3.909,43.016],[-3.891,43.042],[-3.851,43.039],[-3.832,43.064],[-3.847,43.084],[-3.765,43.081],[-3.755,43.101],[-3.705,43.116],[-3.652,43.181],[-3.612,43.17],[-3.604,43.15],[-3.435,43.132],[-3.249,43.196]],[[-4.09,42.161],[-4.112,42.159],[-4.11,42.143],[-4.062,42.132],[-4.066,42.164],[-4.09,42.161]],[[-4.035,42.107],[-4.028,42.088],[-4.032,42.079],[-4.024,42.084],[-4.035,42.107]]],[[[-2.828,42.788],[-2.558,42.763],[-2.573,42.725],[-2.609,42.696],[-2.578,42.668],[-2.522,42.684],[-2.517,42.646],[-2.635,42.648],[-2.659,42.672],[-2.768,42.666],[-2.785,42.699],[-2.868,42.74],[-2.835,42.796],[-2.828,42.788]]]]},"properties":{"prov":"09","name":"Burgos"}},{"type":"Feature","geometry":{"type":"MultiPolygon","coordinates":[[[[-6.23,40.487],[-6.065,40.397],[-6.106,40.357],[-6.016,40.34],[-6.006,40.306],[-5.938,40.281],[-5.917,40.278],[-5.884,40.327],[-5.799,40.354],[-5.782,40.312],[-5.803,40.298],[-5.793,40.287],[-5.693,40.292],[-5.548,40.197],[-5.471,40.208],[-5.429,40.253],[-5.343,40.264],[-5.37,40.218],[-5.368,40.164],[-5.336,40.116],[-5.369,40.1],[-5.365,39.983],[-5.406,39.878],[-5.324,39.892],[-5.284,39.864],[-5.313,39.824],[-5.308,39.76],[-5.255,39.752],[-5.206,39.798],[-5.167,39.8],[-5.158,39.76],[-5.174,39.751],[-5.138,39.715],[-5.162,39.642],[-5.207,39.597],[-4.953,39.395],[-4.975,39.394],[-4.984,39.372],[-5.054,39.362],[-5.09,39.39],[-5.114,39.387],[-5.124,39.336],[-5.248,39.302],[-5.34,39.333],[-5.349,39.234],[-5.384,39.174],[-5.413,39.157],[-5.551,39.216],[-5.613,39.188],[-5.577,39.151],[-5.601,39.134],[-5.584,39.118],[-5.604,39.1],[-5.646,39.102],[-5.687,39.082],[-5.755,39.132],[-5.81,39.145],[-5.833,39.11],[-5.925,39.083],[-5.938,39.084],[-5.927,39.105],[-5.942,39.109],[-6.009,39.053],[-6.019,39.129],[-6.142,39.032],[-6.312,39.112],[-6.324,39.186],[-6.379,39.163],[-6.54,39.182],[-6.54,39.155],[-6.574,39.158],[-6.58,39.18],[-6.633,39.197],[-6.66,39.199],[-6.681,39.177],[-6.768,39.188],[-6.801,39.239],[-6.761,39.277],[-6.747,39.322],[-6.797,39.345],[-6.804,39.39],[-6.883,39.383],[-7.049,39.437],[-7.067,39.414],[-7.009,39.388],[-7.046,39.325],[-7.08,39.311],[-7.103,39.355],[-7.079,39.351],[-7.063,39.372],[-7.126,39.381],[-7.204,39.266],[-7.308,39.337],[-7.323,39.382],[-7.296,39.459],[-7.381,39.492],[-7.545,39.664],[-7.333,39.641],[-7.25,39.667],[-7.149,39.653],[-7.015,39.671],[-6.977,39.773],[-6.987,39.81],[-6.904,39.871],[-6.864,40.012],[-6.942,40.113],[-6.993,40.113],[-7.012,40.127],[-7.016,40.178],[-7.029,40.185],[-7.012,40.226],[-6.965,40.238],[-6.951,40.258],[-6.865,40.271],[-6.835,40.248],[-6.756,40.239],[-6.719,40.269],[-6.69,40.243],[-6.672,40.263],[-6.587,40.271],[-6.556,40.291],[-6.56,40.329],[-6.536,40.347],[-6.23,40.487]]]]},"properties":{"prov":"10","name":"Cáceres"}},{"type":"Feature","geometry":{"type":"MultiPolygon","coordinates":[[[[-5.431,37.05],[-5.42,37.013],[-5.46,36.975],[-5.439,36.935],[-5.413,36.941],[-5.392,36.973],[-5.302,37.037],[-5.3,37.014],[-5.235,36.941],[-5.142,37.004],[-5.115,36.989],[-5.096,36.968],[-5.11,36.959],[-5.087,36.905],[-5.105,36.898],[-5.133,36.839],[-5.17,36.824],[-5.222,36.843],[-5.27,36.884],[-5.302,36.87],[-5.341,36.819],[-5.32,36.787],[-5.291,36.775],[-5.325,36.724],[-5.324,36.673],[-5.381,36.632],[-5.456,36.62],[-5.461,36.589],[-5.523,36.531],[-5.61,36.544],[-5.608,36.512],[-5.524,36.498],[-5.492,36.536],[-5.429,36.533],[-5.347,36.419],[-5.32,36.325],[-5.278,36.337],[-5.252,36.311],[-5.317,36.229],[-5.339,36.153],[-5.365,36.155],[-5.352,36.156],[-5.391,36.181],[-5.441,36.162],[-5.43,36.071],[-5.611,36],[-5.653,36.053],[-5.797,36.078],[-5.915,36.185],[-6.034,36.181],[-6.31,36.529],[-6.279,36.543],[-6.23,36.463],[-6.173,36.521],[-6.201,36.529],[-6.208,36.51],[-6.246,36.509],[-6.258,36.529],[-6.229,36.525],[-6.233,36.585],[-6.388,36.629],[-6.443,36.738],[-6.342,36.794],[-6.353,36.855],[-6.331,36.899],[-5.891,36.842],[-5.877,36.895],[-5.846,36.915],[-5.714,36.92],[-5.668,36.976],[-5.534,36.893],[-5.546,36.93],[-5.47,36.984],[-5.511,37.034],[-5.431,37.05]]]]},"properties":{"prov":"11","name":"Cádiz"}},{"type":"Feature","geometry":{"type":"MultiPolygon","coordinates":[[[[-0.165,40.789],[-0.145,40.785],[-0.127,40.753],[-0.065,40.727],[0.016,40.728],[0.026,40.695],[0.042,40.691],[0.113,40.727],[0.144,40.718],[0.226,40.733],[0.237,40.702],[0.262,40.706],[0.292,40.689],[0.268,40.659],[0.279,40.63],[0.402,40.602],[0.444,40.578],[0.438,40.547],[0.513,40.516],[0.418,40.401],[0.408,40.357],[0.278,40.244],[0.264,40.209],[0.191,40.17],[0.148,40.083],[0.05,40.035],[-0.005,39.915],[-0.067,39.857],[-0.089,39.854],[-0.188,39.722],[-0.264,39.745],[-0.277,39.771],[-0.328,39.801],[-0.378,39.8],[-0.396,39.759],[-0.456,39.715],[-0.531,39.796],[-0.577,39.773],[-0.588,39.742],[-0.652,39.754],[-0.656,39.836],[-0.691,39.852],[-0.713,39.817],[-0.73,39.815],[-0.774,39.87],[-0.833,39.911],[-0.846,39.948],[-0.838,39.977],[-0.778,39.998],[-0.754,40.047],[-0.683,40.044],[-0.627,40.076],[-0.614,40.07],[-0.629,40.103],[-0.579,40.137],[-0.544,40.252],[-0.495,40.229],[-0.428,40.244],[-0.384,40.265],[-0.4,40.295],[-0.389,40.307],[-0.366,40.305],[-0.341,40.34],[-0.282,40.365],[-0.285,40.386],[-0.347,40.444],[-0.273,40.474],[-0.278,40.502],[-0.302,40.515],[-0.293,40.611],[-0.37,40.614],[-0.381,40.664],[-0.329,40.68],[-0.307,40.659],[-0.236,40.691],[-0.224,40.754],[-0.197,40.784],[-0.165,40.789]]]]},"properties":{"prov":"12","name":"Castelló/Castellón"}},{"type":"Feature","geometry":{"type":"MultiPolygon","coordinates":[[[[-4.139,39.566],[-4.042,39.575],[-4.03,39.522],[-4.06,39.521],[-4.068,39.457],[-4.118,39.457],[-4.148,39.363],[-3.972,39.352],[-3.967,39.299],[-3.857,39.259],[-3.791,39.293],[-3.723,39.27],[-3.68,39.298],[-3.533,39.304],[-3.477,39.343],[-3.47,39.372],[-3.41,39.405],[-3.309,39.399],[-3.316,39.435],[-3.294,39.471],[-3.185,39.474],[-3.185,39.488],[-3.157,39.496],[-3.07,39.45],[-3.023,39.457],[-3,39.442],[-2.957,39.447],[-2.928,39.471],[-2.932,39.453],[-2.87,39.39],[-2.897,39.367],[-2.882,39.351],[-2.834,39.353],[-2.793,39.398],[-2.776,39.395],[-2.722,39.267],[-2.843,39.134],[-2.805,39.079],[-2.809,39.029],[-2.832,39.023],[-2.883,38.938],[-2.836,38.906],[-2.792,38.906],[-2.762,38.88],[-2.753,38.815],[-2.732,38.782],[-2.696,38.783],[-2.641,38.743],[-2.669,38.649],[-2.728,38.616],[-2.764,38.628],[-2.75,38.616],[-2.765,38.574],[-2.747,38.547],[-2.78,38.51],[-2.881,38.453],[-2.906,38.47],[-2.964,38.471],[-2.994,38.45],[-3.002,38.408],[-3.065,38.478],[-3.138,38.439],[-3.279,38.46],[-3.326,38.482],[-3.375,38.475],[-3.377,38.44],[-3.452,38.4],[-3.528,38.409],[-3.542,38.445],[-3.583,38.451],[-3.598,38.398],[-3.786,38.425],[-3.915,38.369],[-4.157,38.381],[-4.258,38.402],[-4.277,38.39],[-4.269,38.347],[-4.287,38.343],[-4.453,38.401],[-4.707,38.572],[-4.86,38.614],[-4.877,38.686],[-5.005,38.695],[-5.008,38.715],[-5.047,38.729],[-4.99,38.74],[-4.943,38.854],[-4.915,38.887],[-4.847,38.882],[-4.831,38.936],[-4.918,38.957],[-4.963,39.059],[-4.88,39.032],[-4.833,39.046],[-4.827,39.064],[-4.874,39.1],[-4.853,39.152],[-4.81,39.199],[-4.648,39.167],[-4.708,39.21],[-4.761,39.321],[-4.707,39.328],[-4.704,39.364],[-4.669,39.425],[-4.688,39.45],[-4.618,39.454],[-4.618,39.485],[-4.568,39.497],[-4.525,39.562],[-4.482,39.539],[-4.511,39.522],[-4.462,39.479],[-4.442,39.523],[-4.377,39.496],[-4.242,39.478],[-4.193,39.495],[-4.159,39.577],[-4.139,39.566]]],[[[-4.768,39.516],[-4.743,39.488],[-4.741,39.456],[-4.767,39.434],[-4.755,39.416],[-4.773,39.398],[-4.871,39.368],[-4.941,39.395],[-4.908,39.494],[-4.863,39.556],[-4.768,39.516]]]]},"properties":{"prov":"13","name":"Ciudad Real"}},{"type":"Feature","geometry":{"type":"MultiPolygon","coordinates":[[[[-2.767,38.533],[-2.703,38.501],[-2.6,38.513],[-2.57,38.495],[-2.572,38.414],[-2.482,38.396],[-2.485,38.3],[-2.437,38.272],[-2.454,38.215],[-2.446,38.185],[-2.54,38.093],[-2.606,38.062],[-2.596,38.053],[-2.605,37.998],[-2.67,37.961],[-2.703,37.972],[-2.785,37.918],[-2.873,37.791],[-2.88,37.76],[-2.904,37.751],[-2.902,37.689],[-2.884,37.681],[-2.978,37.634],[-2.978,37.603],[-3.051,37.618],[-3.088,37.596],[-3.172,37.643],[-3.216,37.644],[-3.262,37.639],[-3.296,37.588],[-3.399,37.564],[-3.507,37.617],[-3.536,37.597],[-3.536,37.581],[-3.627,37.529],[-3.776,37.476],[-3.786,37.491],[-3.841,37.386],[-3.951,37.378],[-3.984,37.389],[-4.048,37.468],[-4.088,37.486],[-4.06,37.506],[-4.098,37.512],[-4.121,37.554],[-4.161,37.575],[-4.174,37.61],[-4.22,37.62],[-4.228,37.64],[-4.164,37.682],[-4.184,37.707],[-4.239,37.72],[-4.208,37.78],[-4.287,37.797],[-4.258,37.939],[-4.282,38.022],[-4.161,38.146],[-4.217,38.247],[-4.21,38.301],[-4.239,38.315],[-4.237,38.342],[-4.269,38.348],[-4.279,38.377],[-4.268,38.398],[-3.915,38.369],[-3.786,38.425],[-3.598,38.398],[-3.583,38.451],[-3.567,38.452],[-3.535,38.439],[-3.528,38.409],[-3.471,38.398],[-3.326,38.482],[-3.279,38.46],[-3.138,38.439],[-3.065,38.478],[-3.002,38.408],[-2.994,38.45],[-2.964,38.471],[-2.906,38.47],[-2.881,38.453],[-2.78,38.51],[-2.767,38.533]]]]},"properties":{"prov":"23","name":"Jaén"}},{"type":"Feature","geometry":{"type":"MultiPolygon","coordinates":[[[[-5.035,38.726],[-5.004,38.712],[-5.005,38.695],[-4.877,38.686],[-4.86,38.614],[-4.707,38.572],[-4.453,38.401],[-4.287,38.343],[-4.237,38.342],[-4.239,38.315],[-4.21,38.301],[-4.217,38.247],[-4.161,38.145],[-4.282,38.023],[-4.258,37.939],[-4.287,37.797],[-4.207,37.779],[-4.239,37.72],[-4.184,37.707],[-4.164,37.682],[-4.228,37.64],[-4.22,37.62],[-4.06,37.506],[-4.088,37.486],[-4.048,37.468],[-4.001,37.402],[-4.086,37.404],[-4.158,37.342],[-4.204,37.353],[-4.236,37.336],[-4.237,37.297],[-4.263,37.26],[-4.255,37.23],[-4.296,37.199],[-4.328,37.184],[-4.323,37.205],[-4.372,37.215],[-4.383,37.232],[-4.38,37.275],[-4.418,37.282],[-4.485,37.252],[-4.478,37.245],[-4.498,37.223],[-4.602,37.209],[-4.614,37.255],[-4.645,37.247],[-4.662,37.284],[-4.681,37.29],[-4.672,37.335],[-4.686,37.33],[-4.719,37.358],[-4.729,37.335],[-4.782,37.329],[-4.822,37.358],[-4.815,37.378],[-4.85,37.411],[-4.841,37.436],[-4.885,37.438],[-4.906,37.5],[-4.949,37.521],[-4.932,37.546],[-4.932,37.617],[-4.974,37.6],[-4.954,37.652],[-5,37.707],[-5.047,37.718],[-5.073,37.708],[-5.092,37.68],[-5.07,37.659],[-5.098,37.67],[-5.109,37.701],[-5.13,37.699],[-5.108,37.663],[-5.15,37.661],[-5.177,37.681],[-5.275,37.625],[-5.323,37.614],[-5.352,37.584],[-5.414,37.645],[-5.394,37.655],[-5.413,37.665],[-5.404,37.693],[-5.308,37.699],[-5.31,37.774],[-5.35,37.794],[-5.345,37.84],[-5.415,37.869],[-5.416,37.944],[-5.474,37.975],[-5.494,37.997],[-5.495,38.042],[-5.539,38.094],[-5.582,38.115],[-5.52,38.208],[-5.584,38.401],[-5.384,38.54],[-5.393,38.553],[-5.372,38.584],[-5.309,38.578],[-5.208,38.668],[-5.184,38.66],[-5.186,38.674],[-5.167,38.68],[-5.185,38.72],[-5.099,38.708],[-5.035,38.726]]]]},"properties":{"prov":"14","name":"Córdoba"}},{"type":"Feature","geometry":{"type":"MultiPolygon","coordinates":[[[[-2.152,40.658],[-2.091,40.646],[-2.036,40.602],[-1.986,40.585],[-1.966,40.592],[-1.964,40.612],[-1.923,40.592],[-1.909,40.542],[-1.882,40.519],[-1.853,40.424],[-1.698,40.321],[-1.729,40.303],[-1.719,40.277],[-1.69,40.31],[-1.54,40.191],[-1.511,40.204],[-1.474,40.185],[-1.439,40.197],[-1.456,40.131],[-1.408,40.101],[-1.42,40.094],[-1.377,40.016],[-1.249,39.995],[-1.165,40.01],[-1.142,39.972],[-1.208,39.944],[-1.2,39.859],[-1.215,39.809],[-1.275,39.739],[-1.262,39.699],[-1.308,39.671],[-1.369,39.69],[-1.418,39.655],[-1.462,39.577],[-1.521,39.55],[-1.505,39.418],[-1.739,39.321],[-1.77,39.281],[-1.887,39.305],[-1.99,39.294],[-2.028,39.337],[-2.02,39.352],[-2.096,39.359],[-2.051,39.267],[-2.169,39.281],[-2.289,39.227],[-2.321,39.284],[-2.35,39.279],[-2.374,39.233],[-2.511,39.342],[-2.742,39.318],[-2.776,39.395],[-2.793,39.398],[-2.831,39.355],[-2.882,39.351],[-2.897,39.367],[-2.87,39.391],[-2.932,39.454],[-2.926,39.602],[-2.908,39.642],[-2.998,39.719],[-3.076,39.856],[-3.127,39.875],[-3.097,39.933],[-3.097,39.987],[-3.143,39.985],[-3.165,40.028],[-3.162,40.065],[-3.118,40.061],[-3.061,40.091],[-3.056,40.114],[-3.097,40.154],[-3.064,40.168],[-3.016,40.153],[-3.021,40.187],[-3.005,40.209],[-2.911,40.157],[-2.874,40.174],[-2.863,40.2],[-2.822,40.205],[-2.803,40.264],[-2.817,40.364],[-2.78,40.445],[-2.76,40.442],[-2.76,40.412],[-2.723,40.397],[-2.717,40.42],[-2.685,40.398],[-2.703,40.425],[-2.673,40.449],[-2.664,40.436],[-2.586,40.45],[-2.515,40.424],[-2.505,40.449],[-2.544,40.475],[-2.529,40.498],[-2.546,40.519],[-2.527,40.544],[-2.496,40.509],[-2.427,40.541],[-2.412,40.526],[-2.38,40.544],[-2.417,40.583],[-2.4,40.614],[-2.359,40.597],[-2.343,40.569],[-2.298,40.573],[-2.286,40.592],[-2.294,40.625],[-2.275,40.645],[-2.214,40.619],[-2.169,40.63],[-2.152,40.658]]]]},"properties":{"prov":"16","name":"Cuenca"}},{"type":"Feature","geometry":{"type":"MultiPolygon","coordinates":[[[[-2.55,38.083],[-2.423,38.034],[-2.342,38.026],[-2.298,38.002],[-2.247,37.934],[-2.208,37.917],[-2.295,37.876],[-2.289,37.831],[-2.302,37.808],[-2.277,37.776],[-2.323,37.694],[-2.31,37.63],[-2.36,37.621],[-2.391,37.632],[-2.359,37.522],[-2.456,37.509],[-2.458,37.491],[-2.514,37.48],[-2.642,37.388],[-2.66,37.212],[-2.845,37.279],[-2.949,37.097],[-3,37.095],[-3.03,37.113],[-3.006,37.023],[-2.976,36.978],[-3.072,36.919],[-3.029,36.844],[-3.14,36.788],[-3.129,36.751],[-3.25,36.754],[-3.337,36.739],[-3.42,36.694],[-3.602,36.745],[-3.658,36.747],[-3.734,36.72],[-3.749,36.738],[-3.777,36.738],[-3.768,36.802],[-3.827,36.855],[-3.868,36.851],[-3.93,36.883],[-4.046,36.903],[-4.1,36.953],[-4.167,36.957],[-4.231,37.017],[-4.273,37.015],[-4.287,37.12],[-4.328,37.184],[-4.255,37.23],[-4.263,37.26],[-4.237,37.297],[-4.236,37.336],[-4.204,37.353],[-4.158,37.342],[-4.086,37.404],[-4.001,37.402],[-3.951,37.378],[-3.842,37.386],[-3.786,37.491],[-3.776,37.476],[-3.627,37.529],[-3.536,37.581],[-3.536,37.597],[-3.507,37.617],[-3.399,37.564],[-3.296,37.588],[-3.262,37.639],[-3.216,37.644],[-3.172,37.643],[-3.088,37.596],[-3.051,37.618],[-2.978,37.603],[-2.978,37.634],[-2.884,37.681],[-2.902,37.689],[-2.904,37.751],[-2.88,37.76],[-2.873,37.791],[-2.785,37.918],[-2.703,37.972],[-2.67,37.961],[-2.606,37.998],[-2.596,38.053],[-2.607,38.061],[-2.55,38.083]]]]},"properties":{"prov":"18","name":"Granada"}},{"type":"Feature","geometry":{"type":"MultiPolygon","coordinates":[[[[-2.901,41.326],[-2.869,41.317],[-2.867,41.274],[-2.822,41.257],[-2.776,41.25],[-2.761,41.274],[-2.717,41.276],[-2.71,41.252],[-2.646,41.24],[-2.629,41.215],[-2.589,41.225],[-2.594,41.2],[-2.622,41.188],[-2.577,41.179],[-2.595,41.15],[-2.576,41.139],[-2.537,41.163],[-2.419,41.058],[-2.355,41.086],[-2.323,41.057],[-2.264,41.068],[-2.232,41.097],[-2.175,41.084],[-2.132,41.118],[-2.056,41.07],[-2.048,41.078],[-2.066,41.096],[-2.048,41.153],[-1.959,41.172],[-1.932,41.139],[-1.803,41.09],[-1.617,40.944],[-1.608,40.928],[-1.621,40.88],[-1.545,40.816],[-1.546,40.595],[-1.599,40.562],[-1.678,40.591],[-1.702,40.541],[-1.693,40.487],[-1.749,40.463],[-1.806,40.398],[-1.837,40.428],[-1.853,40.424],[-1.916,40.583],[-1.962,40.612],[-1.966,40.592],[-1.986,40.585],[-2.11,40.651],[-2.157,40.659],[-2.169,40.63],[-2.214,40.619],[-2.275,40.645],[-2.295,40.623],[-2.293,40.578],[-2.334,40.567],[-2.399,40.614],[-2.417,40.583],[-2.383,40.541],[-2.412,40.526],[-2.427,40.541],[-2.496,40.509],[-2.527,40.544],[-2.539,40.534],[-2.515,40.424],[-2.586,40.45],[-2.664,40.436],[-2.673,40.449],[-2.703,40.425],[-2.685,40.398],[-2.717,40.42],[-2.723,40.397],[-2.76,40.412],[-2.76,40.442],[-2.781,40.444],[-2.817,40.364],[-2.803,40.264],[-2.824,40.203],[-2.863,40.2],[-2.874,40.174],[-2.911,40.157],[-3.005,40.209],[-3.021,40.187],[-3.016,40.153],[-3.064,40.168],[-3.068,40.158],[-3.088,40.2],[-3.08,40.228],[-3.109,40.285],[-3.154,40.264],[-3.173,40.234],[-3.194,40.248],[-3.131,40.405],[-3.156,40.439],[-3.199,40.442],[-3.2,40.514],[-3.25,40.544],[-3.297,40.538],[-3.284,40.569],[-3.328,40.595],[-3.322,40.612],[-3.339,40.626],[-3.324,40.63],[-3.314,40.65],[-3.316,40.655],[-3.346,40.638],[-3.393,40.692],[-3.405,40.67],[-3.469,40.69],[-3.435,40.728],[-3.45,40.735],[-3.444,40.762],[-3.459,40.781],[-3.512,40.788],[-3.477,40.824],[-3.473,40.864],[-3.44,40.875],[-3.461,40.907],[-3.444,40.907],[-3.418,40.988],[-3.394,41],[-3.439,41.043],[-3.426,41.083],[-3.489,41.094],[-3.509,41.136],[-3.541,41.15],[-3.54,41.165],[-3.467,41.183],[-3.444,41.215],[-3.402,41.214],[-3.415,41.273],[-3.254,41.258],[-3.231,41.295],[-3.2,41.304],[-3.062,41.273],[-2.95,41.293],[-2.941,41.314],[-2.901,41.326]]]]},"properties":{"prov":"19","name":"Guadalajara"}},{"type":"Feature","geometry":{"type":"MultiPolygon","coordinates":[[[[-1.791,43.395],[-1.797,43.382],[-1.779,43.363],[-1.789,43.353],[-1.737,43.33],[-1.729,43.294],[-1.783,43.287],[-1.795,43.247],[-1.861,43.212],[-1.914,43.225],[-1.921,43.151],[-1.902,43.136],[-1.948,43.098],[-2.023,43.065],[-2.038,42.981],[-2.095,42.973],[-2.104,42.949],[-2.13,42.939],[-2.181,42.935],[-2.21,42.95],[-2.236,42.927],[-2.24,42.895],[-2.29,42.902],[-2.302,42.926],[-2.355,42.95],[-2.535,42.973],[-2.544,42.95],[-2.603,42.982],[-2.597,43.009],[-2.55,43.02],[-2.525,43.045],[-2.547,43.085],[-2.501,43.097],[-2.51,43.161],[-2.484,43.171],[-2.498,43.22],[-2.437,43.244],[-2.418,43.268],[-2.439,43.295],[-2.412,43.324],[-2.131,43.287],[-1.924,43.332],[-1.865,43.372],[-1.791,43.395]]]]},"properties":{"prov":"20","name":"Gipuzkoa/Guipúzcoa"}},{"type":"Feature","geometry":{"type":"MultiPolygon","coordinates":[[[[-6.927,38.204],[-6.848,38.177],[-6.795,38.179],[-6.816,38.12],[-6.77,38.112],[-6.758,38.093],[-6.622,38.097],[-6.581,38.053],[-6.584,38.021],[-6.546,38.028],[-6.477,38.008],[-6.444,38.06],[-6.367,38.049],[-6.347,38.003],[-6.239,37.959],[-6.202,37.962],[-6.17,37.91],[-6.145,37.92],[-6.125,37.905],[-6.164,37.862],[-6.142,37.856],[-6.122,37.817],[-6.134,37.788],[-6.202,37.806],[-6.222,37.74],[-6.252,37.743],[-6.252,37.763],[-6.311,37.765],[-6.45,37.719],[-6.475,37.725],[-6.501,37.668],[-6.536,37.651],[-6.529,37.616],[-6.443,37.623],[-6.395,37.611],[-6.392,37.554],[-6.366,37.536],[-6.356,37.496],[-6.306,37.433],[-6.313,37.419],[-6.356,37.412],[-6.362,37.376],[-6.346,37.366],[-6.385,37.337],[-6.333,37.299],[-6.36,37.238],[-6.342,37.123],[-6.386,37.076],[-6.354,36.988],[-6.379,36.935],[-6.331,36.899],[-6.353,36.857],[-6.346,36.799],[-6.397,36.807],[-6.449,36.908],[-6.522,36.977],[-6.917,37.176],[-6.832,37.108],[-6.924,37.165],[-7.06,37.211],[-7.271,37.202],[-7.376,37.171],[-7.407,37.183],[-7.464,37.487],[-7.511,37.524],[-7.523,37.553],[-7.507,37.558],[-7.504,37.604],[-7.489,37.604],[-7.444,37.665],[-7.453,37.678],[-7.421,37.759],[-7.324,37.816],[-7.283,37.869],[-7.249,37.954],[-7.263,37.98],[-7.202,38.003],[-7.133,38],[-7.121,38.005],[-7.128,38.03],[-7.099,38.044],[-7.059,38.017],[-7.002,38.023],[-6.987,38.104],[-6.952,38.153],[-6.969,38.166],[-6.927,38.204]]]]},"properties":{"prov":"21","name":"Huelva"}},{"type":"Feature","geometry":{"type":"MultiPolygon","coordinates":[[[[-0.747,42.922],[-0.568,42.781],[-0.53,42.792],[-0.505,42.827],[-0.442,42.795],[-0.395,42.799],[-0.313,42.849],[-0.189,42.787],[-0.16,42.798],[-0.106,42.721],[-0.068,42.718],[-0.056,42.692],[0.176,42.737],[0.26,42.716],[0.264,42.693],[0.295,42.673],[0.36,42.724],[0.422,42.69],[0.587,42.694],[0.597,42.706],[0.66,42.691],[0.696,42.659],[0.708,42.621],[0.768,42.611],[0.741,42.545],[0.75,42.535],[0.721,42.525],[0.74,42.505],[0.69,42.488],[0.746,42.385],[0.723,42.366],[0.771,42.351],[0.74,42.337],[0.765,42.322],[0.703,42.19],[0.7,42.107],[0.657,42.04],[0.664,42.015],[0.642,41.982],[0.562,41.938],[0.607,41.919],[0.595,41.917],[0.593,41.884],[0.607,41.871],[0.483,41.801],[0.469,41.765],[0.399,41.758],[0.395,41.732],[0.385,41.74],[0.328,41.681],[0.326,41.662],[0.358,41.632],[0.35,41.599],[0.428,41.602],[0.447,41.542],[0.397,41.49],[0.342,41.484],[0.355,41.452],[0.336,41.407],[0.241,41.428],[0.093,41.35],[0.01,41.36],[-0.023,41.397],[-0.029,41.378],[-0.008,41.348],[-0.049,41.36],[-0.073,41.377],[-0.105,41.485],[-0.157,41.535],[-0.167,41.581],[-0.156,41.59],[-0.206,41.602],[-0.245,41.573],[-0.313,41.624],[-0.36,41.635],[-0.375,41.688],[-0.445,41.704],[-0.489,41.732],[-0.519,41.729],[-0.501,41.761],[-0.517,41.837],[-0.555,41.871],[-0.603,41.883],[-0.595,41.9],[-0.631,41.913],[-0.658,41.957],[-0.778,41.957],[-0.885,42.004],[-0.851,42.026],[-0.857,42.051],[-0.813,42.093],[-0.794,42.054],[-0.763,42.067],[-0.759,42.264],[-0.729,42.298],[-0.745,42.339],[-0.736,42.37],[-0.778,42.391],[-0.772,42.347],[-0.807,42.271],[-0.877,42.282],[-0.891,42.24],[-0.919,42.257],[-0.856,42.34],[-0.844,42.385],[-0.815,42.395],[-0.904,42.435],[-0.904,42.453],[-0.878,42.462],[-0.897,42.479],[-0.893,42.51],[-0.933,42.506],[-0.895,42.549],[-0.934,42.573],[-0.905,42.599],[-0.928,42.656],[-0.893,42.662],[-0.88,42.688],[-0.922,42.701],[-0.904,42.712],[-0.901,42.76],[-0.873,42.759],[-0.848,42.786],[-0.86,42.799],[-0.857,42.847],[-0.819,42.869],[-0.819,42.901],[-0.747,42.922]]]]},"properties":{"prov":"22","name":"Huesca"}},{"type":"Feature","geometry":{"type":"MultiPolygon","coordinates":[[[[-4.894,43.238],[-4.839,43.19],[-4.833,43.103],[-4.734,43.047],[-4.866,42.861],[-4.898,42.863],[-4.896,42.785],[-4.936,42.756],[-4.916,42.721],[-4.872,42.708],[-4.9,42.67],[-4.895,42.624],[-4.916,42.555],[-4.888,42.537],[-4.9,42.451],[-4.924,42.436],[-4.905,42.425],[-4.914,42.401],[-4.903,42.386],[-4.973,42.374],[-4.984,42.338],[-4.941,42.342],[-4.953,42.297],[-5.038,42.297],[-5.053,42.258],[-5.094,42.309],[-5.112,42.312],[-5.183,42.264],[-5.236,42.273],[-5.254,42.24],[-5.226,42.227],[-5.241,42.215],[-5.388,42.221],[-5.372,42.13],[-5.39,42.09],[-5.376,42.041],[-5.439,42.032],[-5.481,42.052],[-5.527,42.104],[-5.587,42.051],[-5.668,42.142],[-5.845,42.111],[-5.897,42.156],[-5.912,42.141],[-5.948,42.142],[-5.953,42.124],[-6.049,42.16],[-6.16,42.166],[-6.212,42.148],[-6.294,42.178],[-6.313,42.207],[-6.428,42.202],[-6.498,42.182],[-6.526,42.203],[-6.72,42.213],[-6.735,42.236],[-6.784,42.254],[-6.741,42.299],[-6.734,42.359],[-6.844,42.406],[-6.814,42.427],[-6.823,42.453],[-6.808,42.469],[-6.823,42.491],[-6.86,42.489],[-6.932,42.521],[-6.96,42.518],[-6.979,42.493],[-7.077,42.508],[-7.06,42.529],[-7.07,42.554],[-7.034,42.584],[-7.05,42.597],[-7.047,42.633],[-7.004,42.643],[-7.045,42.695],[-6.867,42.787],[-6.84,42.823],[-6.871,42.874],[-6.834,42.882],[-6.835,42.874],[-6.815,42.871],[-6.848,42.914],[-6.777,42.901],[-6.772,42.883],[-6.723,42.917],[-6.69,42.922],[-6.49,42.92],[-6.433,42.94],[-6.434,42.964],[-6.473,42.968],[-6.478,42.991],[-6.424,42.988],[-6.359,43.06],[-6.326,43.031],[-6.285,43.036],[-6.227,43.009],[-6.216,43.047],[-6.178,43.048],[-6.137,43.021],[-6.097,43.031],[-6.082,43.076],[-6.02,43.055],[-5.975,43.065],[-5.957,43.019],[-5.915,42.993],[-5.804,42.963],[-5.764,42.97],[-5.728,43.043],[-5.693,43.056],[-5.57,43.023],[-5.494,43.021],[-5.479,43.055],[-5.39,43.049],[-5.369,43.095],[-5.102,43.102],[-5.076,43.182],[-4.997,43.173],[-4.964,43.212],[-4.894,43.238]],[[-5.341,42.269],[-5.34,42.232],[-5.303,42.252],[-5.306,42.272],[-5.341,42.269]]]]},"properties":{"prov":"24","name":"León"}},{"type":"Feature","geometry":{"type":"MultiPolygon","coordinates":[[[[0.716,42.858],[0.856,42.827],[0.926,42.789],[0.96,42.806],[0.984,42.787],[1.079,42.788],[1.166,42.709],[1.229,42.728],[1.253,42.714],[1.357,42.72],[1.443,42.603],[1.426,42.583],[1.445,42.568],[1.414,42.537],[1.451,42.54],[1.468,42.51],[1.419,42.484],[1.441,42.475],[1.444,42.441],[1.552,42.433],[1.561,42.459],[1.579,42.45],[1.597,42.466],[1.657,42.468],[1.67,42.504],[1.704,42.49],[1.726,42.504],[1.732,42.44],[1.802,42.425],[1.806,42.37],[1.83,42.381],[1.855,42.37],[1.835,42.355],[1.842,42.306],[1.67,42.282],[1.69,42.277],[1.685,42.256],[1.705,42.239],[1.68,42.224],[1.68,42.206],[1.738,42.189],[1.739,42.177],[1.699,42.136],[1.722,42.091],[1.691,42.087],[1.67,42.044],[1.692,42.046],[1.699,42.029],[1.666,42.004],[1.656,42.021],[1.648,42],[1.697,41.985],[1.698,42.015],[1.719,41.984],[1.65,41.98],[1.653,41.929],[1.569,41.88],[1.619,41.882],[1.63,41.859],[1.611,41.818],[1.589,41.805],[1.594,41.778],[1.573,41.782],[1.531,41.753],[1.505,41.788],[1.482,41.791],[1.483,41.771],[1.461,41.777],[1.471,41.801],[1.417,41.795],[1.403,41.745],[1.425,41.733],[1.382,41.706],[1.423,41.684],[1.415,41.675],[1.448,41.636],[1.392,41.634],[1.36,41.614],[1.407,41.6],[1.392,41.578],[1.403,41.558],[1.22,41.57],[1.211,41.549],[1.165,41.534],[1.181,41.488],[1.112,41.467],[1.04,41.501],[1.049,41.488],[1.037,41.48],[1.075,41.458],[0.945,41.35],[0.863,41.338],[0.845,41.362],[0.819,41.329],[0.762,41.334],[0.752,41.318],[0.628,41.291],[0.597,41.293],[0.581,41.32],[0.554,41.327],[0.526,41.29],[0.503,41.29],[0.461,41.335],[0.434,41.32],[0.433,41.276],[0.386,41.279],[0.348,41.329],[0.373,41.353],[0.32,41.394],[0.355,41.452],[0.342,41.484],[0.397,41.49],[0.447,41.542],[0.428,41.602],[0.35,41.599],[0.358,41.632],[0.327,41.678],[0.385,41.74],[0.395,41.732],[0.399,41.758],[0.469,41.765],[0.607,41.872],[0.593,41.884],[0.595,41.917],[0.607,41.919],[0.562,41.938],[0.663,42.012],[0.765,42.322],[0.74,42.337],[0.771,42.351],[0.723,42.366],[0.746,42.385],[0.69,42.488],[0.74,42.505],[0.721,42.525],[0.75,42.535],[0.741,42.545],[0.768,42.611],[0.699,42.629],[0.696,42.659],[0.66,42.689],[0.676,42.691],[0.68,42.723],[0.643,42.754],[0.66,42.839],[0.716,42.858]],[[1.655,42.115],[1.645,42.113],[1.692,42.11],[1.683,42.114],[1.655,42.115]]]]},"properties":{"prov":"25","name":"Lleida"}},{"type":"Feature","geometry":{"type":"MultiPolygon","coordinates":[[[[-2.997,42.642],[-2.946,42.639],[-2.916,42.62],[-2.853,42.636],[-2.842,42.609],[-2.819,42.613],[-2.82,42.591],[-2.841,42.581],[-2.823,42.555],[-2.778,42.581],[-2.764,42.623],[-2.741,42.623],[-2.681,42.595],[-2.706,42.517],[-2.676,42.526],[-2.648,42.483],[-2.605,42.504],[-2.597,42.473],[-2.568,42.494],[-2.53,42.484],[-2.537,42.495],[-2.51,42.52],[-2.515,42.49],[-2.416,42.491],[-2.346,42.451],[-2.33,42.469],[-2.299,42.457],[-2.288,42.467],[-2.274,42.445],[-2.175,42.408],[-2.112,42.42],[-2.116,42.399],[-2.079,42.368],[-2.09,42.347],[-2.07,42.343],[-2.016,42.369],[-1.971,42.353],[-1.871,42.289],[-1.872,42.253],[-1.68,42.192],[-1.701,42.173],[-1.68,42.152],[-1.832,42.148],[-1.909,42.059],[-1.902,42.03],[-1.847,42.008],[-1.844,41.987],[-1.865,41.978],[-1.857,41.966],[-1.97,41.919],[-2.028,41.953],[-2.036,41.939],[-2.114,41.961],[-2.124,41.995],[-2.108,42.003],[-2.162,42.067],[-2.127,42.08],[-2.133,42.101],[-2.236,42.103],[-2.27,42.089],[-2.282,42.132],[-2.318,42.145],[-2.438,42.137],[-2.484,42.106],[-2.515,42.115],[-2.515,42.069],[-2.549,42.052],[-2.58,41.996],[-2.747,42.009],[-2.757,42.033],[-2.706,42.104],[-2.735,42.125],[-2.792,42.109],[-2.798,42.047],[-2.89,42.01],[-2.914,42.023],[-2.931,42.087],[-3.034,42.086],[-3.129,42.199],[-3.089,42.246],[-3.11,42.351],[-3.063,42.357],[-3.085,42.385],[-3.105,42.386],[-3.101,42.417],[-3.078,42.416],[-3.083,42.397],[-3.057,42.37],[-3.063,42.425],[-3.046,42.445],[-3.095,42.488],[-3.073,42.529],[-3.134,42.542],[-3.06,42.589],[-3.084,42.641],[-2.997,42.642]],[[-2.945,42.604],[-2.939,42.594],[-2.923,42.601],[-2.934,42.614],[-2.945,42.604]]]]},"properties":{"prov":"26","name":"La Rioja"}},{"type":"Feature","geometry":{"type":"MultiPolygon","coordinates":[[[[-2.344,42.146],[-2.282,42.132],[-2.27,42.089],[-2.209,42.105],[-2.127,42.097],[-2.127,42.08],[-2.162,42.067],[-2.108,42.003],[-2.124,41.995],[-2.11,41.958],[-2.036,41.939],[-2.028,41.953],[-1.97,41.919],[-1.856,41.966],[-1.857,41.91],[-1.818,41.853],[-1.819,41.829],[-1.853,41.789],[-1.806,41.755],[-1.809,41.737],[-1.775,41.725],[-1.812,41.686],[-1.806,41.664],[-1.859,41.662],[-1.923,41.598],[-1.993,41.601],[-1.994,41.577],[-1.967,41.546],[-1.981,41.486],[-1.953,41.462],[-1.954,41.424],[-1.937,41.408],[-2.029,41.384],[-2.044,41.397],[-2.036,41.427],[-2.102,41.446],[-2.117,41.425],[-2.116,41.382],[-2.163,41.355],[-2.174,41.288],[-2.146,41.184],[-2.08,41.171],[-2.052,41.147],[-2.066,41.096],[-2.048,41.078],[-2.056,41.07],[-2.132,41.118],[-2.175,41.084],[-2.232,41.097],[-2.264,41.068],[-2.323,41.057],[-2.355,41.086],[-2.419,41.058],[-2.537,41.163],[-2.576,41.139],[-2.595,41.15],[-2.577,41.179],[-2.622,41.188],[-2.594,41.2],[-2.589,41.225],[-2.629,41.215],[-2.646,41.24],[-2.71,41.252],[-2.717,41.276],[-2.761,41.274],[-2.776,41.25],[-2.822,41.257],[-2.867,41.274],[-2.867,41.313],[-2.888,41.325],[-2.941,41.314],[-2.95,41.293],[-3.062,41.273],[-3.207,41.304],[-3.351,41.395],[-3.33,41.461],[-3.538,41.552],[-3.541,41.608],[-3.46,41.589],[-3.393,41.691],[-3.358,41.693],[-3.354,41.737],[-3.275,41.769],[-3.284,41.884],[-3.171,41.793],[-3.136,41.812],[-3.097,41.881],[-3.017,41.887],[-2.999,41.932],[-2.971,41.929],[-2.966,41.966],[-2.932,42.018],[-2.884,42.009],[-2.798,42.047],[-2.803,42.08],[-2.775,42.124],[-2.735,42.125],[-2.706,42.104],[-2.758,42.033],[-2.746,42.009],[-2.58,41.996],[-2.549,42.052],[-2.515,42.069],[-2.515,42.115],[-2.484,42.106],[-2.44,42.137],[-2.344,42.146]]]]},"properties":{"prov":"42","name":"Soria"}},{"type":"Feature","geometry":{"type":"MultiPolygon","coordinates":[[[[-1.652,43.31],[-1.624,43.306],[-1.63,43.285],[-1.609,43.252],[-1.536,43.295],[-1.438,43.267],[-1.414,43.274],[-1.384,43.254],[-1.381,43.19],[-1.402,43.178],[-1.414,43.128],[-1.473,43.087],[-1.441,43.046],[-1.354,43.028],[-1.333,43.108],[-1.27,43.118],[-1.309,43.071],[-1.263,43.044],[-1.213,43.052],[-1.146,43.026],[-1.142,43.007],[-1.115,43.024],[-1.081,43.001],[-1.012,42.993],[-0.945,42.953],[-0.909,42.964],[-0.81,42.951],[-0.756,42.968],[-0.724,42.922],[-0.783,42.922],[-0.819,42.901],[-0.866,42.763],[-1.028,42.7],[-1.037,42.652],[-1.052,42.643],[-1.152,42.648],[-1.203,42.55],[-1.271,42.549],[-1.293,42.511],[-1.273,42.482],[-1.342,42.424],[-1.36,42.378],[-1.329,42.355],[-1.399,42.291],[-1.391,42.272],[-1.418,42.212],[-1.392,42.181],[-1.399,42.126],[-1.305,42.043],[-1.418,41.914],[-1.478,41.925],[-1.559,41.914],[-1.902,42.03],[-1.902,42.074],[-1.832,42.148],[-1.779,42.138],[-1.74,42.15],[-1.72,42.133],[-1.68,42.152],[-1.701,42.173],[-1.68,42.191],[-1.872,42.253],[-1.871,42.289],[-1.996,42.364],[-2.09,42.347],[-2.079,42.368],[-2.116,42.399],[-2.112,42.42],[-2.175,42.408],[-2.274,42.445],[-2.288,42.467],[-2.4,42.472],[-2.424,42.51],[-2.392,42.517],[-2.397,42.599],[-2.421,42.607],[-2.453,42.567],[-2.462,42.587],[-2.491,42.585],[-2.499,42.61],[-2.416,42.663],[-2.376,42.651],[-2.382,42.634],[-2.288,42.655],[-2.294,42.678],[-2.317,42.683],[-2.324,42.724],[-2.317,42.739],[-2.262,42.748],[-2.281,42.785],[-2.234,42.841],[-2.253,42.893],[-2.238,42.896],[-2.236,42.927],[-2.038,42.981],[-2.023,43.065],[-1.948,43.098],[-1.902,43.136],[-1.921,43.151],[-1.914,43.225],[-1.861,43.212],[-1.795,43.247],[-1.783,43.287],[-1.652,43.31]]]]},"properties":{"prov":"31","name":"Navarra"}},{"type":"Feature","geometry":{"type":"MultiPolygon","coordinates":[[[[-5.345,35.871],[-5.373,35.884],[-5.379,35.916],[-5.317,35.889],[-5.279,35.9],[-5.345,35.871]]]]},"properties":{"prov":"51","name":"Ceuta"}},{"type":"Feature","geometry":{"type":"MultiPolygon","coordinates":[[[[-7.636,43.753],[-7.597,43.663],[-7.585,43.712],[-7.56,43.71],[-7.557,43.73],[-7.524,43.737],[-7.357,43.671],[-7.294,43.592],[-7.246,43.575],[-7.271,43.563],[-7.256,43.547],[-7.236,43.569],[-7.037,43.552],[-7.048,43.477],[-7.089,43.455],[-7.102,43.427],[-7.173,43.43],[-7.169,43.404],[-7.182,43.392],[-7.128,43.373],[-7.131,43.331],[-7.101,43.304],[-7.06,43.305],[-7.072,43.271],[-7.062,43.244],[-6.971,43.204],[-6.965,43.188],[-6.981,43.167],[-6.957,43.135],[-6.885,43.157],[-6.868,43.19],[-6.822,43.143],[-6.871,43.091],[-6.916,43.073],[-6.939,43.087],[-6.997,43.019],[-6.962,42.991],[-6.957,43.037],[-6.91,42.99],[-6.864,42.983],[-6.815,42.871],[-6.834,42.882],[-6.871,42.874],[-6.84,42.823],[-6.867,42.787],[-7.045,42.695],[-7.004,42.643],[-7.047,42.633],[-7.05,42.597],[-7.034,42.584],[-7.07,42.554],[-7.06,42.529],[-7.076,42.497],[-7.1,42.459],[-7.149,42.436],[-7.203,42.326],[-7.231,42.359],[-7.22,42.387],[-7.304,42.429],[-7.37,42.421],[-7.399,42.436],[-7.508,42.387],[-7.542,42.384],[-7.576,42.405],[-7.617,42.384],[-7.631,42.407],[-7.698,42.43],[-7.713,42.452],[-7.789,42.466],[-7.748,42.48],[-7.765,42.494],[-7.803,42.48],[-7.924,42.525],[-7.889,42.538],[-7.931,42.579],[-7.893,42.63],[-7.89,42.684],[-7.861,42.706],[-7.866,42.721],[-7.935,42.74],[-7.978,42.779],[-7.98,42.811],[-7.956,42.84],[-8,42.849],[-7.936,42.903],[-7.943,42.917],[-7.908,42.951],[-7.905,42.985],[-7.943,43.068],[-7.917,43.088],[-7.961,43.19],[-7.922,43.269],[-7.947,43.286],[-7.887,43.337],[-7.885,43.375],[-7.899,43.39],[-7.882,43.408],[-7.823,43.401],[-7.807,43.437],[-7.78,43.449],[-7.749,43.578],[-7.718,43.583],[-7.735,43.622],[-7.691,43.654],[-7.719,43.687],[-7.699,43.696],[-7.7,43.735],[-7.636,43.753]]]]},"properties":{"prov":"27","name":"Lugo"}},{"type":"Feature","geometry":{"type":"MultiPolygon","coordinates":[[[[-3.537,41.161],[-3.489,41.094],[-3.426,41.083],[-3.439,41.043],[-3.394,41],[-3.418,40.988],[-3.444,40.907],[-3.461,40.907],[-3.44,40.875],[-3.473,40.864],[-3.477,40.824],[-3.512,40.788],[-3.459,40.781],[-3.444,40.762],[-3.45,40.735],[-3.435,40.728],[-3.469,40.69],[-3.405,40.67],[-3.393,40.692],[-3.346,40.638],[-3.316,40.655],[-3.339,40.626],[-3.322,40.612],[-3.328,40.595],[-3.284,40.569],[-3.297,40.538],[-3.25,40.544],[-3.2,40.514],[-3.199,40.442],[-3.156,40.439],[-3.131,40.405],[-3.194,40.248],[-3.102,40.278],[-3.068,40.158],[-3.089,40.163],[-3.097,40.142],[-3.056,40.114],[-3.061,40.091],[-3.118,40.061],[-3.162,40.065],[-3.178,40.092],[-3.201,40.06],[-3.276,40.047],[-3.332,40.08],[-3.375,40.075],[-3.376,40.051],[-3.401,40.034],[-3.507,40.049],[-3.804,39.885],[-3.868,39.905],[-3.875,39.929],[-3.728,39.965],[-3.746,39.981],[-3.72,39.984],[-3.7,40.02],[-3.636,40.042],[-3.608,40.109],[-3.656,40.125],[-3.667,40.143],[-3.77,40.139],[-3.805,40.177],[-3.951,40.19],[-4.073,40.265],[-4.104,40.242],[-4.146,40.245],[-4.144,40.265],[-4.191,40.297],[-4.306,40.222],[-4.308,40.234],[-4.348,40.237],[-4.356,40.309],[-4.38,40.318],[-4.383,40.289],[-4.435,40.259],[-4.437,40.237],[-4.51,40.219],[-4.528,40.2],[-4.575,40.207],[-4.559,40.231],[-4.569,40.259],[-4.529,40.293],[-4.546,40.342],[-4.527,40.345],[-4.503,40.315],[-4.456,40.319],[-4.422,40.406],[-4.321,40.41],[-4.341,40.429],[-4.316,40.465],[-4.328,40.534],[-4.289,40.564],[-4.279,40.603],[-4.291,40.628],[-4.271,40.629],[-4.262,40.605],[-4.245,40.602],[-4.161,40.623],[-4.173,40.63],[-4.172,40.681],[-4.097,40.748],[-4.077,40.789],[-3.98,40.785],[-3.947,40.863],[-3.952,40.894],[-3.907,40.955],[-3.781,41],[-3.74,41.054],[-3.676,41.087],[-3.614,41.149],[-3.537,41.161]]]]},"properties":{"prov":"28","name":"Madrid"}},{"type":"Feature","geometry":{"type":"MultiPolygon","coordinates":[[[[-4.457,43.057],[-4.398,43.035],[-4.348,42.973],[-4.24,42.957],[-4.237,42.917],[-4.223,42.911],[-4.225,42.857],[-4.2,42.845],[-4.181,42.859],[-4.144,42.869],[-4.126,42.854],[-4.14,42.829],[-4.16,42.837],[-4.182,42.823],[-4.184,42.812],[-4.15,42.789],[-4.098,42.791],[-4.082,42.765],[-4.11,42.734],[-4.145,42.753],[-4.257,42.688],[-4.267,42.705],[-4.293,42.691],[-4.264,42.618],[-4.303,42.555],[-4.243,42.456],[-4.317,42.459],[-4.335,42.42],[-4.316,42.41],[-4.33,42.404],[-4.322,42.38],[-4.273,42.386],[-4.231,42.208],[-4.189,42.176],[-4.205,42.134],[-4.12,42.128],[-4.104,42.11],[-4.056,42.101],[-4.077,42.083],[-4.103,42.087],[-4.104,42.062],[-4.08,42.037],[-4.039,42.053],[-3.981,42.051],[-3.971,42.033],[-4.015,41.999],[-4.033,41.954],[-3.891,41.997],[-3.892,41.958],[-3.929,41.959],[-3.981,41.931],[-3.981,41.901],[-4.038,41.873],[-4.089,41.871],[-4.041,41.768],[-4.236,41.814],[-4.318,41.763],[-4.389,41.788],[-4.454,41.759],[-4.501,41.771],[-4.473,41.843],[-4.512,41.823],[-4.549,41.831],[-4.566,41.813],[-4.632,41.862],[-4.637,41.888],[-4.67,41.901],[-4.728,41.869],[-4.758,41.826],[-4.789,41.818],[-4.869,41.932],[-4.928,41.915],[-4.95,41.934],[-4.984,41.91],[-5.005,41.938],[-4.966,42.007],[-4.936,42.018],[-4.948,42.054],[-4.904,42.078],[-4.929,42.118],[-4.927,42.15],[-4.994,42.145],[-5.027,42.154],[-5.032,42.174],[-5.002,42.289],[-4.953,42.297],[-4.942,42.328],[-4.942,42.347],[-4.984,42.338],[-4.973,42.374],[-4.903,42.386],[-4.914,42.401],[-4.905,42.425],[-4.924,42.436],[-4.9,42.451],[-4.888,42.537],[-4.916,42.555],[-4.895,42.624],[-4.9,42.67],[-4.872,42.708],[-4.916,42.721],[-4.936,42.744],[-4.896,42.785],[-4.903,42.81],[-4.889,42.841],[-4.9,42.86],[-4.866,42.861],[-4.757,43.016],[-4.558,43.02],[-4.521,43.047],[-4.476,43.039],[-4.457,43.057]]]]},"properties":{"prov":"34","name":"Palencia"}},{"type":"Feature","geometry":{"type":"MultiPolygon","coordinates":[[[[-6.476,41.287],[-6.318,41.271],[-6.134,41.19],[-6.109,41.213],[-6.062,41.221],[-6.009,41.2],[-6.028,41.179],[-6.022,41.155],[-5.979,41.175],[-5.953,41.14],[-5.913,41.178],[-5.921,41.218],[-5.898,41.239],[-5.767,41.216],[-5.657,41.246],[-5.485,41.179],[-5.484,41.146],[-5.47,41.158],[-5.477,41.178],[-5.408,41.186],[-5.4,41.145],[-5.357,41.141],[-5.329,41.117],[-5.298,41.126],[-5.288,41.196],[-5.253,41.2],[-5.125,41.132],[-5.153,41.062],[-5.141,41.037],[-5.107,41.029],[-5.09,40.997],[-5.105,40.96],[-5.128,40.954],[-5.115,40.903],[-5.164,40.868],[-5.157,40.821],[-5.219,40.773],[-5.214,40.758],[-5.378,40.678],[-5.386,40.663],[-5.366,40.649],[-5.383,40.621],[-5.448,40.58],[-5.5,40.582],[-5.501,40.597],[-5.516,40.585],[-5.525,40.541],[-5.429,40.564],[-5.467,40.464],[-5.51,40.464],[-5.511,40.426],[-5.526,40.422],[-5.575,40.444],[-5.561,40.477],[-5.634,40.46],[-5.691,40.422],[-5.678,40.387],[-5.686,40.355],[-5.673,40.349],[-5.758,40.282],[-5.802,40.297],[-5.782,40.312],[-5.799,40.354],[-5.885,40.326],[-5.917,40.278],[-5.992,40.299],[-6.016,40.317],[-6.016,40.34],[-6.106,40.357],[-6.065,40.397],[-6.129,40.421],[-6.116,40.442],[-6.147,40.436],[-6.199,40.482],[-6.235,40.487],[-6.536,40.347],[-6.56,40.329],[-6.556,40.291],[-6.587,40.271],[-6.835,40.248],[-6.865,40.271],[-6.863,40.297],[-6.794,40.329],[-6.781,40.365],[-6.835,40.408],[-6.85,40.453],[-6.795,40.512],[-6.801,40.551],[-6.845,40.566],[-6.794,40.662],[-6.831,40.753],[-6.817,40.801],[-6.826,40.843],[-6.8,40.848],[-6.93,41.03],[-6.808,41.036],[-6.754,41.103],[-6.767,41.135],[-6.701,41.18],[-6.692,41.208],[-6.648,41.248],[-6.599,41.244],[-6.591,41.255],[-6.571,41.239],[-6.476,41.287]]]]},"properties":{"prov":"37","name":"Salamanca"}},{"type":"Feature","geometry":{"type":"MultiPolygon","coordinates":[[[[-3.964,41.586],[-3.868,41.532],[-3.824,41.481],[-3.788,41.486],[-3.804,41.525],[-3.766,41.538],[-3.77,41.46],[-3.739,41.451],[-3.724,41.479],[-3.728,41.518],[-3.672,41.56],[-3.617,41.577],[-3.573,41.565],[-3.546,41.58],[-3.538,41.552],[-3.502,41.529],[-3.48,41.521],[-3.458,41.537],[-3.424,41.516],[-3.413,41.476],[-3.33,41.461],[-3.351,41.395],[-3.207,41.304],[-3.239,41.288],[-3.254,41.258],[-3.415,41.273],[-3.412,41.261],[-3.399,41.255],[-3.402,41.214],[-3.614,41.149],[-3.676,41.087],[-3.74,41.054],[-3.781,41],[-3.89,40.969],[-3.938,40.927],[-3.98,40.785],[-4.07,40.794],[-4.147,40.694],[-4.42,40.633],[-4.431,40.742],[-4.474,40.775],[-4.494,40.834],[-4.546,40.826],[-4.557,40.836],[-4.532,40.859],[-4.56,40.886],[-4.566,40.956],[-4.607,40.971],[-4.638,41.031],[-4.713,41.062],[-4.721,41.157],[-4.681,41.186],[-4.628,41.171],[-4.651,41.221],[-4.574,41.275],[-4.602,41.303],[-4.597,41.321],[-4.56,41.302],[-4.529,41.321],[-4.468,41.296],[-4.515,41.41],[-4.142,41.47],[-4.027,41.518],[-4,41.516],[-3.981,41.583],[-3.964,41.586]]]]},"properties":{"prov":"40","name":"Segovia"}},{"type":"Feature","geometry":{"type":"MultiPolygon","coordinates":[[[[-5.725,38.196],[-5.689,38.182],[-5.684,38.158],[-5.706,38.169],[-5.695,38.15],[-5.739,38.133],[-5.735,38.086],[-5.694,38.084],[-5.633,38.139],[-5.585,38.132],[-5.495,38.042],[-5.493,37.996],[-5.416,37.944],[-5.415,37.869],[-5.339,37.833],[-5.35,37.795],[-5.31,37.774],[-5.307,37.7],[-5.414,37.674],[-5.358,37.585],[-5.177,37.681],[-5.15,37.661],[-5.108,37.663],[-5.13,37.699],[-5.109,37.701],[-5.098,37.67],[-5.07,37.659],[-5.092,37.68],[-5.073,37.708],[-5.047,37.718],[-5,37.707],[-4.954,37.652],[-4.974,37.6],[-4.932,37.617],[-4.932,37.546],[-4.949,37.522],[-4.906,37.5],[-4.885,37.438],[-4.841,37.436],[-4.85,37.411],[-4.815,37.378],[-4.822,37.358],[-4.782,37.329],[-4.729,37.335],[-4.719,37.358],[-4.686,37.33],[-4.671,37.334],[-4.653,37.256],[-4.73,37.253],[-4.709,37.198],[-4.793,37.154],[-4.826,37.201],[-4.854,37.199],[-4.875,37.158],[-4.898,37.156],[-4.905,37.182],[-4.94,37.176],[-4.943,37.158],[-4.903,37.139],[-4.908,37.115],[-5.053,37.031],[-5.123,37.028],[-5.163,36.981],[-5.226,36.942],[-5.3,37.014],[-5.302,37.037],[-5.392,36.973],[-5.413,36.941],[-5.439,36.935],[-5.46,36.975],[-5.42,37.013],[-5.434,37.052],[-5.511,37.034],[-5.47,36.984],[-5.546,36.93],[-5.534,36.893],[-5.668,36.976],[-5.714,36.92],[-5.846,36.915],[-5.877,36.895],[-5.891,36.842],[-6.331,36.899],[-6.379,36.935],[-6.354,36.988],[-6.386,37.074],[-6.342,37.123],[-6.36,37.238],[-6.333,37.299],[-6.385,37.337],[-6.346,37.366],[-6.362,37.376],[-6.356,37.412],[-6.313,37.419],[-6.306,37.433],[-6.356,37.496],[-6.366,37.536],[-6.392,37.554],[-6.395,37.611],[-6.443,37.623],[-6.529,37.616],[-6.536,37.651],[-6.501,37.668],[-6.475,37.725],[-6.45,37.719],[-6.311,37.765],[-6.252,37.763],[-6.252,37.743],[-6.222,37.74],[-6.202,37.806],[-6.134,37.788],[-6.122,37.817],[-6.142,37.856],[-6.164,37.862],[-6.125,37.904],[-6.145,37.92],[-6.175,37.915],[-6.184,37.929],[-6.168,37.956],[-6.052,37.997],[-5.954,37.995],[-5.934,38.047],[-5.909,38.063],[-5.926,38.105],[-5.881,38.132],[-5.875,38.158],[-5.725,38.196]],[[-5.026,37.6],[-5.031,37.642],[-5.047,37.632],[-5.084,37.648],[-5.026,37.6]]]]},"properties":{"prov":"41","name":"Sevilla"}},{"type":"Feature","geometry":{"type":"MultiPolygon","coordinates":[[[[-4.375,40.314],[-4.356,40.309],[-4.348,40.237],[-4.308,40.234],[-4.306,40.222],[-4.191,40.297],[-4.144,40.265],[-4.146,40.245],[-4.104,40.242],[-4.073,40.265],[-3.951,40.19],[-3.805,40.177],[-3.77,40.139],[-3.667,40.143],[-3.656,40.125],[-3.608,40.109],[-3.636,40.042],[-3.7,40.02],[-3.72,39.984],[-3.746,39.981],[-3.728,39.965],[-3.875,39.929],[-3.869,39.905],[-3.815,39.886],[-3.507,40.049],[-3.401,40.034],[-3.376,40.051],[-3.378,40.075],[-3.334,40.081],[-3.275,40.047],[-3.201,40.06],[-3.166,40.091],[-3.17,40.048],[-3.143,39.985],[-3.097,39.987],[-3.097,39.933],[-3.127,39.875],[-3.076,39.856],[-2.998,39.719],[-2.908,39.642],[-2.926,39.602],[-2.931,39.471],[-2.957,39.447],[-3,39.442],[-3.023,39.457],[-3.07,39.45],[-3.143,39.496],[-3.185,39.488],[-3.185,39.474],[-3.294,39.471],[-3.316,39.435],[-3.309,39.399],[-3.41,39.405],[-3.47,39.372],[-3.477,39.343],[-3.533,39.304],[-3.68,39.298],[-3.723,39.27],[-3.791,39.293],[-3.854,39.258],[-3.967,39.299],[-3.972,39.352],[-4.148,39.363],[-4.118,39.457],[-4.068,39.457],[-4.06,39.521],[-4.03,39.522],[-4.042,39.575],[-4.124,39.564],[-4.159,39.577],[-4.193,39.495],[-4.242,39.478],[-4.377,39.496],[-4.442,39.523],[-4.462,39.479],[-4.511,39.522],[-4.482,39.539],[-4.525,39.562],[-4.568,39.497],[-4.618,39.485],[-4.618,39.454],[-4.69,39.452],[-4.755,39.416],[-4.768,39.43],[-4.741,39.456],[-4.752,39.502],[-4.863,39.556],[-4.903,39.504],[-4.95,39.393],[-5.207,39.597],[-5.162,39.642],[-5.138,39.715],[-5.174,39.751],[-5.158,39.76],[-5.167,39.8],[-5.206,39.798],[-5.255,39.752],[-5.308,39.76],[-5.313,39.824],[-5.284,39.864],[-5.324,39.892],[-5.406,39.878],[-5.365,39.983],[-5.374,40.059],[-5.359,40.108],[-5.216,40.108],[-5.204,40.083],[-5.172,40.085],[-5.088,40.124],[-5.067,40.151],[-5.019,40.159],[-5.013,40.111],[-4.955,40.121],[-4.956,40.133],[-4.925,40.136],[-4.925,40.17],[-4.808,40.235],[-4.818,40.255],[-4.803,40.275],[-4.762,40.261],[-4.698,40.282],[-4.687,40.212],[-4.654,40.198],[-4.579,40.217],[-4.528,40.2],[-4.51,40.219],[-4.437,40.237],[-4.435,40.259],[-4.383,40.289],[-4.375,40.314]]]]},"properties":{"prov":"45","name":"Toledo"}},{"type":"Feature","geometry":{"type":"MultiPolygon","coordinates":[[[[1.439,41.576],[1.454,41.569],[1.431,41.556],[1.449,41.537],[1.409,41.535],[1.396,41.513],[1.485,41.475],[1.473,41.381],[1.509,41.394],[1.537,41.385],[1.578,41.362],[1.559,41.343],[1.596,41.309],[1.588,41.294],[1.637,41.296],[1.62,41.254],[1.57,41.261],[1.583,41.236],[1.624,41.223],[1.641,41.235],[1.645,41.193],[1.513,41.178],[1.395,41.132],[1.298,41.128],[1.221,41.084],[1.249,41.109],[1.215,41.104],[1.17,41.055],[1.123,41.075],[1.049,41.064],[0.967,41.028],[0.862,40.947],[0.741,40.823],[0.7,40.805],[0.881,40.718],[0.661,40.557],[0.618,40.554],[0.595,40.578],[0.709,40.591],[0.745,40.636],[0.601,40.622],[0.515,40.523],[0.438,40.547],[0.444,40.578],[0.402,40.602],[0.282,40.628],[0.268,40.658],[0.292,40.689],[0.164,40.74],[0.278,40.821],[0.239,40.885],[0.294,40.971],[0.259,41.015],[0.28,41.02],[0.218,41.044],[0.201,41.127],[0.248,41.13],[0.253,41.15],[0.303,41.164],[0.322,41.225],[0.381,41.236],[0.386,41.279],[0.433,41.276],[0.442,41.326],[0.469,41.331],[0.503,41.29],[0.526,41.29],[0.554,41.327],[0.581,41.32],[0.597,41.293],[0.628,41.291],[0.752,41.318],[0.762,41.334],[0.819,41.329],[0.845,41.362],[0.863,41.338],[0.945,41.35],[1.075,41.458],[1.037,41.48],[1.049,41.488],[1.04,41.501],[1.112,41.467],[1.181,41.488],[1.165,41.534],[1.211,41.549],[1.22,41.57],[1.439,41.576]]]]},"properties":{"prov":"43","name":"Tarragona"}},{"type":"Feature","geometry":{"type":"MultiPolygon","coordinates":[[[[-0.503,41.354],[-0.48,41.346],[-0.47,41.318],[-0.421,41.312],[-0.429,41.294],[-0.406,41.272],[-0.016,41.123],[0.037,41.047],[0.079,41.08],[0.146,41.063],[0.22,41.071],[0.294,40.971],[0.239,40.885],[0.278,40.821],[0.234,40.787],[0.23,40.767],[0.175,40.755],[0.175,40.741],[0.159,40.751],[0.164,40.724],[0.113,40.727],[0.042,40.691],[0.026,40.695],[0.016,40.728],[-0.065,40.727],[-0.127,40.753],[-0.145,40.785],[-0.165,40.789],[-0.197,40.784],[-0.224,40.754],[-0.236,40.691],[-0.307,40.659],[-0.329,40.68],[-0.378,40.668],[-0.37,40.614],[-0.293,40.611],[-0.302,40.515],[-0.278,40.502],[-0.273,40.474],[-0.347,40.444],[-0.285,40.386],[-0.282,40.366],[-0.341,40.34],[-0.366,40.305],[-0.389,40.307],[-0.4,40.295],[-0.384,40.265],[-0.428,40.244],[-0.495,40.229],[-0.544,40.252],[-0.579,40.137],[-0.629,40.103],[-0.614,40.07],[-0.627,40.076],[-0.683,40.044],[-0.754,40.047],[-0.778,39.998],[-0.838,39.977],[-0.84,39.925],[-0.798,39.881],[-0.864,39.847],[-0.913,39.872],[-0.903,39.932],[-0.92,39.964],[-1.142,39.972],[-1.165,40.01],[-1.084,40.036],[-1.072,40.06],[-1.148,40.114],[-1.245,40.116],[-1.298,40.212],[-1.323,40.185],[-1.32,40.146],[-1.357,40.129],[-1.433,40.139],[-1.449,40.145],[-1.439,40.197],[-1.474,40.185],[-1.511,40.204],[-1.54,40.191],[-1.69,40.31],[-1.721,40.279],[-1.729,40.303],[-1.698,40.321],[-1.778,40.392],[-1.806,40.398],[-1.801,40.414],[-1.785,40.413],[-1.735,40.472],[-1.693,40.487],[-1.702,40.541],[-1.678,40.591],[-1.599,40.562],[-1.546,40.595],[-1.542,40.811],[-1.621,40.88],[-1.608,40.928],[-1.617,40.944],[-1.562,40.939],[-1.505,40.964],[-1.473,40.949],[-1.447,40.985],[-1.476,41.015],[-1.418,41.03],[-1.405,41.066],[-1.356,41.089],[-1.354,41.058],[-1.287,41.049],[-1.253,41.077],[-1.271,41.103],[-1.254,41.123],[-1.21,41.139],[-1.174,41.124],[-1.122,41.135],[-1.106,41.168],[-1.039,41.135],[-1.001,41.134],[-0.972,41.153],[-0.999,41.095],[-0.953,41.075],[-0.913,41.093],[-0.883,41.149],[-0.86,41.108],[-0.829,41.096],[-0.793,41.106],[-0.761,41.17],[-0.694,41.112],[-0.61,41.192],[-0.669,41.237],[-0.625,41.248],[-0.63,41.312],[-0.6,41.319],[-0.548,41.268],[-0.532,41.228],[-0.51,41.238],[-0.508,41.256],[-0.527,41.288],[-0.577,41.314],[-0.582,41.348],[-0.503,41.354]]]]},"properties":{"prov":"44","name":"Teruel"}},{"type":"Feature","geometry":{"type":"MultiPolygon","coordinates":[[[[-0.987,39.981],[-0.919,39.963],[-0.903,39.932],[-0.913,39.873],[-0.889,39.852],[-0.864,39.847],[-0.794,39.881],[-0.73,39.815],[-0.713,39.817],[-0.691,39.852],[-0.656,39.836],[-0.652,39.754],[-0.636,39.748],[-0.588,39.742],[-0.577,39.773],[-0.531,39.796],[-0.456,39.715],[-0.396,39.759],[-0.378,39.8],[-0.328,39.801],[-0.277,39.771],[-0.264,39.745],[-0.189,39.722],[-0.208,39.643],[-0.216,39.655],[-0.254,39.621],[-0.316,39.523],[-0.321,39.463],[-0.302,39.449],[-0.302,39.434],[-0.33,39.462],[-0.31,39.428],[-0.336,39.425],[-0.279,39.278],[-0.216,39.186],[-0.238,39.177],[-0.239,39.147],[-0.203,39.066],[-0.027,38.862],[-0.042,38.856],[-0.071,38.886],[-0.148,38.858],[-0.161,38.887],[-0.231,38.853],[-0.311,38.882],[-0.381,38.835],[-0.403,38.84],[-0.462,38.808],[-0.595,38.795],[-0.566,38.755],[-0.53,38.767],[-0.507,38.743],[-0.629,38.687],[-0.643,38.728],[-0.707,38.734],[-0.735,38.759],[-0.835,38.732],[-0.862,38.771],[-0.913,38.77],[-0.934,38.794],[-0.925,38.892],[-0.957,38.92],[-0.959,38.945],[-1.147,38.929],[-1.227,39.025],[-1.264,39.045],[-1.256,39.106],[-1.181,39.212],[-1.162,39.305],[-1.337,39.334],[-1.415,39.38],[-1.426,39.363],[-1.432,39.378],[-1.455,39.361],[-1.453,39.399],[-1.522,39.433],[-1.499,39.5],[-1.503,39.546],[-1.521,39.55],[-1.462,39.577],[-1.418,39.655],[-1.369,39.69],[-1.313,39.67],[-1.268,39.691],[-1.275,39.739],[-1.215,39.809],[-1.2,39.859],[-1.204,39.949],[-0.987,39.981]]],[[[-1.293,40.207],[-1.284,40.171],[-1.244,40.146],[-1.245,40.116],[-1.148,40.114],[-1.072,40.051],[-1.134,40.016],[-1.247,39.995],[-1.377,40.016],[-1.42,40.094],[-1.408,40.101],[-1.457,40.135],[-1.449,40.145],[-1.355,40.129],[-1.317,40.15],[-1.323,40.185],[-1.293,40.207]]]]},"properties":{"prov":"46","name":"València/Valencia"}},{"type":"Feature","geometry":{"type":"MultiPolygon","coordinates":[[[[-5.112,42.312],[-5.094,42.309],[-5.055,42.258],[-5.038,42.297],[-5.002,42.289],[-5.027,42.154],[-4.927,42.15],[-4.929,42.118],[-4.904,42.078],[-5.005,41.947],[-4.985,41.911],[-4.95,41.934],[-4.928,41.915],[-4.869,41.932],[-4.789,41.818],[-4.758,41.826],[-4.728,41.869],[-4.665,41.899],[-4.566,41.813],[-4.549,41.831],[-4.512,41.823],[-4.473,41.843],[-4.501,41.771],[-4.45,41.758],[-4.389,41.788],[-4.318,41.763],[-4.236,41.814],[-4.214,41.799],[-4.123,41.807],[-4.1,41.775],[-4.041,41.768],[-4.076,41.726],[-4.026,41.692],[-4.035,41.621],[-4.006,41.619],[-3.984,41.597],[-3.996,41.521],[-4.515,41.41],[-4.471,41.292],[-4.529,41.321],[-4.56,41.302],[-4.597,41.321],[-4.602,41.303],[-4.574,41.275],[-4.651,41.221],[-4.628,41.171],[-4.681,41.186],[-4.722,41.149],[-4.806,41.135],[-4.828,41.099],[-4.864,41.094],[-4.99,41.161],[-5.125,41.132],[-5.253,41.2],[-5.333,41.178],[-5.292,41.269],[-5.335,41.371],[-5.308,41.414],[-5.339,41.426],[-5.325,41.455],[-5.345,41.479],[-5.229,41.528],[-5.293,41.574],[-5.271,41.601],[-5.329,41.616],[-5.327,41.681],[-5.391,41.753],[-5.37,41.778],[-5.279,41.815],[-5.33,41.832],[-5.306,41.858],[-5.311,41.892],[-5.294,41.92],[-5.335,41.937],[-5.254,41.981],[-5.281,41.979],[-5.326,42.02],[-5.376,42.04],[-5.39,42.09],[-5.372,42.13],[-5.389,42.218],[-5.241,42.215],[-5.226,42.227],[-5.254,42.24],[-5.236,42.273],[-5.183,42.264],[-5.112,42.312]]]]},"properties":{"prov":"47","name":"Valladolid"}},{"type":"Feature","geometry":{"type":"MultiPolygon","coordinates":[[[[-2.751,43.457],[-2.739,43.43],[-2.696,43.407],[-2.646,43.416],[-2.619,43.392],[-2.51,43.377],[-2.503,43.364],[-2.46,43.336],[-2.413,43.321],[-2.439,43.295],[-2.418,43.268],[-2.437,43.244],[-2.498,43.22],[-2.484,43.171],[-2.51,43.161],[-2.501,43.097],[-2.662,43.074],[-2.634,43.045],[-2.634,43.02],[-2.894,43.046],[-2.975,43.099],[-2.936,43.136],[-2.954,43.16],[-2.946,43.171],[-2.98,43.202],[-3.007,43.197],[-3.027,43.217],[-3.04,43.21],[-3.017,43.203],[-3.027,43.161],[-3.075,43.146],[-3.253,43.199],[-3.418,43.133],[-3.449,43.236],[-3.34,43.278],[-3.332,43.302],[-3.279,43.29],[-3.225,43.309],[-3.209,43.284],[-3.152,43.307],[-3.153,43.353],[-3.115,43.35],[-3.109,43.365],[-3.084,43.378],[-3.104,43.365],[-3.021,43.326],[-3.04,43.373],[-2.97,43.413],[-2.947,43.412],[-2.947,43.436],[-2.807,43.43],[-2.751,43.457]],[[-3.275,43.265],[-3.306,43.253],[-3.285,43.198],[-3.265,43.206],[-3.27,43.232],[-3.251,43.249],[-3.249,43.26],[-3.275,43.265]]]]},"properties":{"prov":"48","name":"Bizkaia/Vizcaya"}},{"type":"Feature","geometry":{"type":"MultiPolygon","coordinates":[[[[-6.761,42.24],[-6.498,42.182],[-6.428,42.202],[-6.313,42.207],[-6.294,42.178],[-6.212,42.148],[-6.16,42.166],[-6.049,42.16],[-5.953,42.124],[-5.948,42.142],[-5.912,42.141],[-5.897,42.156],[-5.845,42.111],[-5.668,42.142],[-5.587,42.051],[-5.526,42.104],[-5.471,42.01],[-5.486,41.986],[-5.463,41.975],[-5.438,41.967],[-5.431,42.004],[-5.447,42.014],[-5.384,42.042],[-5.255,41.982],[-5.335,41.937],[-5.294,41.92],[-5.311,41.892],[-5.306,41.858],[-5.33,41.832],[-5.279,41.815],[-5.391,41.761],[-5.327,41.681],[-5.329,41.616],[-5.271,41.601],[-5.293,41.574],[-5.229,41.528],[-5.345,41.479],[-5.325,41.455],[-5.339,41.426],[-5.308,41.414],[-5.335,41.371],[-5.292,41.269],[-5.302,41.259],[-5.294,41.226],[-5.34,41.194],[-5.33,41.178],[-5.289,41.182],[-5.298,41.126],[-5.329,41.117],[-5.357,41.141],[-5.387,41.136],[-5.418,41.188],[-5.477,41.178],[-5.47,41.158],[-5.484,41.146],[-5.485,41.179],[-5.663,41.246],[-5.767,41.216],[-5.898,41.239],[-5.921,41.218],[-5.913,41.178],[-5.953,41.14],[-5.979,41.175],[-6.022,41.155],[-6.028,41.179],[-6.009,41.2],[-6.062,41.221],[-6.109,41.213],[-6.134,41.19],[-6.318,41.271],[-6.479,41.288],[-6.438,41.306],[-6.416,41.348],[-6.38,41.357],[-6.39,41.385],[-6.318,41.386],[-6.333,41.411],[-6.189,41.575],[-6.302,41.663],[-6.444,41.685],[-6.499,41.657],[-6.548,41.686],[-6.549,41.725],[-6.569,41.743],[-6.516,41.871],[-6.571,41.884],[-6.546,41.936],[-6.574,41.961],[-6.588,41.968],[-6.621,41.94],[-6.699,41.933],[-6.751,41.943],[-6.769,41.984],[-6.786,41.989],[-6.811,41.993],[-6.821,41.946],[-6.844,41.942],[-6.942,41.944],[-6.958,41.969],[-6.985,41.974],[-6.991,41.988],[-6.961,42.028],[-6.975,42.055],[-7.012,42.052],[-7.034,42.074],[-6.887,42.214],[-6.844,42.228],[-6.797,42.209],[-6.791,42.252],[-6.761,42.24]]]]},"properties":{"prov":"49","name":"Zamora"}},{"type":"Feature","geometry":{"type":"MultiPolygon","coordinates":[[[[-0.909,42.744],[-0.897,42.736],[-0.922,42.701],[-0.88,42.688],[-0.893,42.662],[-0.928,42.656],[-0.905,42.599],[-0.934,42.573],[-0.895,42.549],[-0.933,42.506],[-0.893,42.51],[-0.897,42.479],[-0.878,42.462],[-0.904,42.453],[-0.904,42.435],[-0.815,42.395],[-0.844,42.385],[-0.856,42.34],[-0.919,42.257],[-0.891,42.24],[-0.877,42.282],[-0.807,42.271],[-0.772,42.347],[-0.778,42.391],[-0.736,42.37],[-0.745,42.339],[-0.729,42.296],[-0.759,42.264],[-0.763,42.067],[-0.794,42.054],[-0.813,42.093],[-0.857,42.051],[-0.851,42.026],[-0.885,42.004],[-0.778,41.957],[-0.658,41.957],[-0.631,41.913],[-0.595,41.9],[-0.603,41.883],[-0.555,41.871],[-0.517,41.837],[-0.501,41.761],[-0.519,41.729],[-0.489,41.732],[-0.445,41.704],[-0.375,41.688],[-0.36,41.635],[-0.313,41.624],[-0.245,41.573],[-0.206,41.602],[-0.156,41.59],[-0.167,41.581],[-0.157,41.535],[-0.105,41.485],[-0.073,41.377],[-0.049,41.36],[-0.008,41.348],[-0.029,41.378],[-0.023,41.397],[0.01,41.36],[0.093,41.35],[0.241,41.428],[0.334,41.409],[0.32,41.394],[0.374,41.352],[0.348,41.329],[0.386,41.279],[0.381,41.236],[0.322,41.225],[0.292,41.156],[0.253,41.15],[0.248,41.13],[0.201,41.127],[0.201,41.085],[0.22,41.071],[0.146,41.063],[0.079,41.08],[0.037,41.047],[-0.016,41.123],[-0.406,41.272],[-0.429,41.294],[-0.421,41.312],[-0.47,41.318],[-0.48,41.346],[-0.503,41.354],[-0.582,41.348],[-0.577,41.314],[-0.527,41.288],[-0.508,41.256],[-0.51,41.238],[-0.532,41.228],[-0.548,41.268],[-0.6,41.319],[-0.63,41.312],[-0.625,41.248],[-0.669,41.237],[-0.61,41.192],[-0.694,41.112],[-0.761,41.17],[-0.793,41.106],[-0.829,41.096],[-0.86,41.108],[-0.883,41.149],[-0.913,41.093],[-0.953,41.075],[-0.999,41.095],[-0.972,41.153],[-1.001,41.134],[-1.039,41.135],[-1.106,41.168],[-1.122,41.135],[-1.174,41.124],[-1.21,41.139],[-1.254,41.123],[-1.271,41.103],[-1.253,41.077],[-1.287,41.049],[-1.354,41.058],[-1.356,41.089],[-1.405,41.066],[-1.418,41.03],[-1.476,41.015],[-1.447,40.985],[-1.473,40.949],[-1.505,40.964],[-1.562,40.939],[-1.631,40.95],[-1.803,41.09],[-1.932,41.139],[-1.959,41.172],[-2.052,41.147],[-2.08,41.171],[-2.146,41.184],[-2.17,41.319],[-2.112,41.434],[-2.102,41.446],[-2.047,41.434],[-2.036,41.427],[-2.042,41.389],[-2.029,41.384],[-1.937,41.408],[-1.954,41.424],[-1.953,41.462],[-1.981,41.486],[-1.967,41.546],[-1.994,41.577],[-1.993,41.601],[-1.923,41.598],[-1.859,41.662],[-1.806,41.664],[-1.812,41.686],[-1.775,41.725],[-1.809,41.737],[-1.806,41.755],[-1.853,41.79],[-1.819,41.829],[-1.818,41.853],[-1.857,41.91],[-1.865,41.978],[-1.844,41.987],[-1.847,42.008],[-1.559,41.914],[-1.411,41.919],[-1.34,42.018],[-1.305,42.043],[-1.399,42.126],[-1.392,42.181],[-1.418,42.212],[-1.391,42.272],[-1.399,42.291],[-1.329,42.355],[-1.36,42.378],[-1.342,42.424],[-1.273,42.482],[-1.288,42.523],[-1.265,42.557],[-1.226,42.542],[-1.203,42.55],[-1.152,42.648],[-1.052,42.643],[-1.037,42.652],[-1.028,42.7],[-0.969,42.704],[-0.909,42.744]],[[-1.126,42.456],[-1.108,42.441],[-1.051,42.441],[-1.092,42.486],[-1.126,42.456]],[[-1.149,42.433],[-1.183,42.425],[-1.188,42.403],[-1.159,42.41],[-1.149,42.433]]]]},"properties":{"prov":"50","name":"Zaragoza"}},{"type":"Feature","geometry":{"type":"MultiPolygon","coordinates":[[[[-2.951,35.265],[-2.97,35.289],[-2.953,35.32],[-2.923,35.29],[-2.951,35.265]]]]},"properties":{"prov":"52","name":"Melilla"}}]}